<?xml version="1.0" encoding="UTF-8"?>
<kml xmlns="http://www.opengis.net/kml/2.2">
<Document>
    <name>Waypoints</name>
    <Style id="yellowLineGreenPoly">
        <LineStyle>
            <color>7f00ffff</color>
            <width>4</width>
        </LineStyle>
        <PolyStyle>
            <color>7f00ff00</color>
        </PolyStyle>
    </Style>
    <Placemark>
        <name>Path</name>
        <styleUrl>#yellowLineGreenPoly</styleUrl>
        <LineString>
            <coordinates>
127.10723419988594,37.28850700541756,0
127.10723549989288,37.2885092054135,0
127.10723669988884,37.28851150541844,0
127.10723769988556,37.28851330541871,0
127.10723909988751,37.288515005414055,0
127.10724059989207,37.28851640541808,0
127.1072425998853,37.28851790542145,0
127.10724459988515,37.288519005415566,0
127.10724679989396,37.288520005413986,0
127.10724919988908,37.28852090541636,0
127.10725149989096,37.288521505418665,0
127.10725429988638,37.28852190541556,0
127.10725699988825,37.28852200542141,0
127.10725949988615,37.288521905418214,0
127.10726179988794,37.28852180541528,0
127.10726419989217,37.288521405421,0
127.10726649988743,37.28852100541313,0
127.10726889989023,37.28852070541429,0
127.10727119988357,37.28852040541989,0
127.107273699889,37.28851980542065,0
127.10727599988734,37.28851920541247,0
127.1072782998853,37.28851860541328,0
127.10728049988677,37.28851790541415,0
127.10728279988474,37.288517305414864,0
127.10728509988404,37.288516605419986,0
127.10728739988352,37.28851590541604,0
127.10728969988581,37.28851500542097,0
127.1072918998873,37.28851430541261,0
127.1072938998842,37.28851340541331,0
127.10729599988726,37.288512705418576,0
127.10729859988359,37.28851180541826,0
127.10730079988629,37.288511005414186,0
127.10730299988873,37.28851020541909,0
127.10730519989139,37.288509405414935,0
127.10730299988737,37.28851030541464,0
127.10730019988375,37.288511205415254,0
127.10729759988747,37.28851210541563,0
127.10729479989344,37.288513105420854,0
127.1072914998935,37.28851440541791,0
127.10728899988533,37.28851520541767,0
127.1072864998869,37.28851610541309,0
127.10728399988828,37.28851700541745,0
127.1072814998928,37.288517705412666,0
127.10727939988766,37.28851850542069,0
127.10727669989296,37.28851940541626,0
127.1072740998863,37.288520205420355,0
127.10727149988325,37.28852150542033,0
127.10726939989297,37.28852280541528,0
127.10726689988763,37.288524105419505,0
127.10726429989124,37.28852640542019,0
127.10726279989413,37.28852810541445,0
127.10726149988459,37.28852960541711,0
127.10726019989306,37.288531405415746,0
127.10725929988388,37.288533105418026,0
127.10725849988404,37.288534805415814,0
127.10725789988538,37.288536905413686,0
127.10725739989277,37.288539205416185,0
127.10725709989293,37.288541005413414,0
127.10725679989284,37.28854280541969,0
127.10725679988398,37.28854480542106,0
127.1072569998859,37.288546605413224,0
127.10725759989124,37.28854840541396,0
127.10725829988323,37.28855020541885,0
127.10725929989395,37.28855190541458,0
127.10726029989002,37.28855380541923,0
127.10726139988607,37.288555605414665,0
127.10726239988396,37.28855740541476,0
127.10726329988532,37.288559105414926,0
127.10726439988942,37.288561105419625,0
127.10726539988593,37.288563005415234,0
127.10726629988744,37.288564705415396,0
127.10726719988732,37.2885665054201,0
127.10726809988893,37.28856820542025,0
127.10726909988402,37.288570205420385,0
127.10727019989005,37.288572105420485,0
127.1072715998864,37.28857500541626,0
127.1072725998929,37.288577005416556,0
127.1072735998913,37.28857880541655,0
127.10727479988634,37.28858130542125,0
127.10727599988785,37.28858340541672,0
127.10727679989012,37.288585205417036,0
127.10727769989066,37.28858700541266,0
127.10727939989148,37.2885900054171,0
127.1072804998854,37.288592005412475,0
127.10728139988447,37.288593905412625,0
127.10728259988464,37.2885961054126,0
127.10728339988728,37.288597905412864,0
127.10728449989244,37.28859990541739,0
127.10728589988773,37.288602205412545,0
127.10728679988537,37.28860420541722,0
127.10728759988977,37.28860590541291,0
127.10728859988727,37.28860780541733,0
127.10728999988632,37.288610605417375,0
127.10729099988416,37.288612505412786,0
127.10729179988847,37.28861420541747,0
127.10729259989309,37.2886159054131,0
127.10729349989418,37.288617705417636,0
127.10729449989356,37.288619505417486,0
127.10729539988365,37.2886213054128,0
127.10729639988526,37.288623705413116,0
127.10729729988651,37.28862550541762,0

            </coordinates>
        </LineString>
    </Placemark>
</Document>
</kml>
