<?xml version="1.0" encoding="UTF-8"?>
<kml xmlns="http://www.opengis.net/kml/2.2">
<Document>
    <name>Waypoints</name>
    <Style id="yellowLineGreenPoly">
        <LineStyle>
            <color>7f00ffff</color>
            <width>4</width>
        </LineStyle>
        <PolyStyle>
            <color>7f00ff00</color>
        </PolyStyle>
    </Style>
    <Placemark>
        <name>Path</name>
        <styleUrl>#yellowLineGreenPoly</styleUrl>
        <LineString>
            <coordinates>
127.10743179988755,37.28882480541159,0
127.10743399989259,37.288824405414516,0
127.10743669989121,37.28882390541588,0
127.10743969989389,37.28882360541207,0
127.10744289989199,37.28882340541214,0
127.10744629988551,37.28882330541608,0
127.10744969988909,37.28882330541565,0
127.10745309989274,37.288823305415136,0
127.10745639988671,37.28882330541014,0
127.1074593998838,37.288823405415066,0
127.10746209988567,37.288823505416325,0
127.10746449989367,37.288823505409454,0
127.10746679989305,37.2888234054116,0
127.10746989989136,37.28882330541133,0
127.10747299989083,37.2888231054154,0
127.10747529989017,37.288823005417406,0
127.10747779988665,37.28882290540969,0
127.10748029988416,37.28882270541537,0
127.10748299989113,37.28882240541595,0
127.1074856998869,37.2888221054163,0
127.10748829988684,37.2888216054123,0
127.10749099988617,37.288821005416864,0
127.10749349988886,37.288820405413034,0
127.10749599989013,37.28881990541371,0
127.10749839989415,37.28881930541462,0
127.10750059989003,37.28881870541601,0
127.10750369988438,37.28881800541432,0
127.1075064998835,37.28881730540909,0
127.10750919989393,37.28881670541341,0
127.10751199989289,37.288816005408066,0
127.10751519988652,37.28881520541465,0
127.10751769988997,37.28881450541475,0
127.10752029989058,37.28881390541449,0
127.10752319988904,37.28881310540844,0
127.10752599988868,37.2888123054162,0
127.10752889988821,37.288811405414464,0
127.10753179988758,37.288810505412656,0
127.10753449989002,37.288809605411515,0
127.10753719989113,37.288808805414895,0
127.10753989989234,37.28880800540917,0
127.10754249988373,37.28880720540812,0
127.10754499988776,37.28880640541207,0
127.10754759989035,37.28880560541107,0
127.1075501998904,37.28880500541013,0
127.10755259988342,37.288804305414196,0
127.10755499988653,37.288803705413926,0
127.10755729989137,37.28880310540951,0
127.10755949988734,37.28880240541422,0
127.10756169989244,37.28880190541017,0
127.1075638998873,37.288801305410345,0
127.10756629989137,37.28880060541429,0
127.1075686998843,37.28879990540901,0
127.10757109988822,37.28879920541286,0
127.10757359989192,37.28879840540718,0
127.10757619989269,37.288797705410104,0
127.1075788998906,37.28879710541261,0
127.10758159988973,37.28879640541049,0
127.10758409989073,37.28879580541371,0
127.1075865998919,37.28879520540787,0
127.10758909989282,37.288794605410985,0
127.10759129988828,37.28879390541508,0
127.10759439989347,37.288793105406576,0
127.10759759988663,37.28879220540632,0
127.10759979989197,37.288791605415,0
127.10760219988308,37.28879100541358,0
127.10760459988668,37.28879030540772,0
127.10760709988836,37.2887896054149,0
127.10760949989064,37.28878900541351,0
127.10761189989411,37.28878830540749,0
127.10761439988332,37.28878770540988,0
127.1076166998882,37.288787005408714,0
127.10761909989034,37.28878640540714,0
127.10762159989075,37.28878580540954,0
127.10762379988566,37.28878510541302,0
127.10762699988946,37.288784205412135,0
127.10762989988451,37.28878350540797,0
127.10763219988792,37.28878290541107,0

            </coordinates>
        </LineString>
    </Placemark>
</Document>
</kml>
