<?xml version="1.0" encoding="UTF-8"?>
<kml xmlns="http://www.opengis.net/kml/2.2">
<Document>
    <name>Waypoints</name>
    <Style id="yellowLineGreenPoly">
        <LineStyle>
            <color>7f00ffff</color>
            <width>4</width>
        </LineStyle>
        <PolyStyle>
            <color>7f00ff00</color>
        </PolyStyle>
    </Style>
    <Placemark>
        <name>Path</name>
        <styleUrl>#yellowLineGreenPoly</styleUrl>
        <LineString>
            <coordinates>
127.10737279988902,37.28869220541787,0
127.10737489988541,37.288691505412686,0
127.10737699989274,37.28869080541665,0
127.10737979988943,37.28869000541877,0
127.10738199988536,37.28868920541316,0
127.10738449988723,37.28868840541141,0
127.10738709988718,37.28868760541386,0
127.10738999988483,37.28868660541087,0
127.1073928998837,37.288685505412246,0
127.10739559988313,37.28868460541418,0
127.10739799988781,37.28868370541237,0
127.10740009988349,37.28868300541571,0
127.10740229989007,37.2886822054189,0
127.10740459988517,37.288681305412524,0
127.1074069998897,37.28868040541052,0
127.10740909988519,37.28867970541371,0
127.10741149988961,37.28867880541161,0
127.10741359988651,37.28867800541016,0
127.10741589989236,37.288677105412745,0
127.10741849988585,37.28867590541409,0
127.1074205998939,37.288675105412686,0
127.10742269989059,37.28867430541109,0
127.1074248998854,37.28867350541365,0
127.10742699989329,37.28867270541213,0
127.107429199888,37.28867190541463,0
127.10743139989275,37.2886712054128,0
127.10743359988614,37.28867050541075,0
127.10743569989245,37.28866980541364,0
127.10743789988426,37.28866920541606,0
127.10744039988349,37.288668505417675,0
127.10744259988681,37.28866790541118,0
127.10744499988492,37.2886674054176,0
127.1074471998867,37.28866690541559,0
127.10744969989317,37.288666505412834,0
127.10745219988691,37.288666205414394,0
127.10745469989183,37.2886659054161,0
127.10745769988678,37.28866570541622,0
127.10746009988979,37.28866570540929,0
127.10746289988555,37.288665705410025,0
127.10746529988693,37.28866580541654,0
127.10746779988428,37.2886661054093,0
127.10747089989205,37.28866650541397,0
127.1074732998897,37.288666905415994,0
127.10747559988808,37.28866740540937,0
127.10747789988741,37.28866780541614,0
127.10748049989057,37.28866840540866,0
127.10748349988522,37.28866910541333,0
127.10748579989361,37.288669705411245,0
127.10748789989286,37.28867040541418,0
127.1074899998922,37.28867110541709,0
127.10749219988874,37.28867190541066,0
127.10749469988986,37.28867280541239,0
127.10749709989163,37.28867380541449,0
127.10749929988579,37.28867480540804,0
127.10750139989277,37.288675805415615,0
127.10750339989053,37.28867680540981,0
127.10750549988515,37.28867790541268,0
127.10750749989417,37.288678905416,0
127.10750999988963,37.2886803054132,0
127.10751199988745,37.288681305416276,0
127.10751399988415,37.28868240541487,0
127.10751599989224,37.288683505413594,0
127.10751819988675,37.28868450541584,0
127.10752039989286,37.28868550540919,0
127.1075223998909,37.288686505412095,0
127.10752439988907,37.28868750541496,0
127.10752689988871,37.28868860541615,0
127.10752909988484,37.28868950541362,0
127.10753119988398,37.28869030541138,0
127.10753349989345,37.288690905408394,0
127.10753579989142,37.28869150541419,0
127.10753829988872,37.288691905410055,0
127.10754079988571,37.28869230541486,0
127.10754329988413,37.28869260541507,0
127.10754569988785,37.28869260541543,0
127.10754799989208,37.288692705416196,0
127.10755049988764,37.28869230541114,0
127.10754769988495,37.288692805408246,0
127.1075446998843,37.288693405410626,0
127.10754209989159,37.28869370541588,0
127.10753959988594,37.28869400541601,0
127.10753709989287,37.288694205411716,0
127.10753469988778,37.28869430541574,0
127.10753169988327,37.288694305408235,0
127.10752889989126,37.28869390540887,0
127.10752649989243,37.28869350540793,0
127.10752429989125,37.288693005410636,0
127.10752209989263,37.2886923054132,0
127.10751929988312,37.28869150541301,0
127.10751709988591,37.28869070541091,0
127.10751489988739,37.288690005413336,0
127.10751269989028,37.28868920541115,0
127.10751069989088,37.288688305412656,0
127.10750859989088,37.288687605410104,0
127.10750609989022,37.2886866054131,0
127.10750379988498,37.288685705410884,0
127.10750149989225,37.28868470541324,0
127.10749879988784,37.28868340541192,0
127.10749659989226,37.28868250541391,0
127.10749429988844,37.288681505415965,0
127.1074917998884,37.28868050540965,0
127.10748929988677,37.28867960541686,0
127.10748689989369,37.288678805414904,0
127.1074845998864,37.28867810541243,0
127.10748169988963,37.28867740541196,0
127.10747909988496,37.28867690541502,0
127.10747689988465,37.28867640541688,0
127.107473499893,37.288676005409016,0
127.10747119989067,37.288675805411266,0
127.10746869989174,37.28867560541414,0
127.10746599988508,37.28867540541741,0
127.10746349988645,37.28867520541115,0
127.10746109988457,37.288675105413596,0
127.10745799988372,37.28867500541352,0
127.10745549988367,37.28867490541166,0
127.10745209988798,37.28867480541689,0
127.10744939989144,37.28867470541552,0
127.10744599988327,37.28867470541594,0
127.10744339988516,37.28867460540962,0
127.10744059988761,37.28867470541298,0
127.10743769989195,37.288674805412064,0
127.1074345998885,37.28867490541149,0
127.10742999989309,37.28867550541536,0
127.10742699988378,37.28867590541446,0
127.10742399988425,37.28867640541822,0
127.10742119988853,37.28867720541719,0
127.10741839988417,37.28867780541578,0
127.10741569988947,37.2886784054097,0
127.10741299988317,37.2886790054124,0
127.10741049988343,37.288679705410196,0
127.10740819989395,37.288680205416476,0
127.10740599989151,37.28868070541775,0
127.1074032998938,37.28868150541148,0
127.10740099989167,37.288682105412995,0
127.10739849989172,37.28868280541053,0
127.10739589989177,37.28868360541735,0
127.10739329989356,37.288684305410534,0
127.10739039988752,37.288685105413336,0
127.10738769989084,37.28868580541116,0
127.1073854998866,37.288686405416605,0
127.10738319989267,37.28868720541804,0
127.10738059989266,37.28868800541551,0
127.1073778998942,37.288688805417664,0
127.10737379989185,37.28869000541405,0
127.1073711998917,37.2886908054113,0
127.10736889988748,37.28869150541672,0
127.10736629988722,37.28869230541386,0
127.10736419989078,37.28869300541889,0
127.10736129989415,37.28869390541668,0
127.10735729988808,37.28869520541231,0
127.1073548998839,37.288696005417734,0
127.10735229988335,37.28869680541457,0
127.10734949988453,37.288697705416325,0
127.10734659988755,37.28869860541375,0
127.10734239988427,37.288699905418305,0
127.10733959988683,37.28870070541529,0
127.10733699988592,37.28870150541176,0
127.10733449988322,37.28870230541247,0
127.10733219988958,37.28870300541734,0
127.10732989988495,37.288703705412956,0
127.10732759989284,37.288704305413184,0
127.10732539988626,37.28870500541302,0
127.10732299988307,37.28870570541322,0
127.10732059989115,37.28870640541356,0
127.10731809988806,37.288707205413914,0
127.10731549988812,37.28870790541435,0
127.10731279988838,37.28870870541499,0
127.10730999989006,37.28870950542026,0
127.10730739988858,37.28871030541606,0
127.10730459989048,37.28871110541218,0
127.10730179989207,37.288711905417244,0
127.10729879989417,37.288712905413696,0
127.10729509989201,37.2887142054203,0
127.10729259988697,37.28871510541564,0
127.10728989989181,37.288716305416116,0
127.10728769988972,37.28871740541562,0
127.10728539988907,37.28871850541975,0
127.10728319988371,37.288719805419255,0
127.10728079988641,37.28872080541441,0
127.1072784998938,37.28872210541867,0
127.10727629988824,37.288723405418054,0
127.10727419989226,37.28872470541289,0
127.10727219988293,37.28872600542087,0
127.10727029988348,37.28872730541533,0
127.10726849988367,37.28872850541855,0
127.10726629988439,37.28873010541355,0
127.10726449989257,37.28873150541698,0
127.1072626998894,37.28873290542022,0
127.10726069988486,37.28873460541936,0
127.10725909988967,37.2887360054134,0
127.10725759988931,37.28873760542088,0
127.10725599988766,37.28873940541506,0
127.10725429988581,37.28874130541843,0
127.10725279989038,37.28874330541722,0
127.10725149988836,37.2887455054158,0
127.10725039989246,37.288747805418815,0
127.10724979988845,37.288750105416604,0
127.10724959988734,37.288752505418564,0
127.1072495998878,37.28875460541562,0
127.10724969988804,37.28875660542147,0
127.10725039988992,37.28875860541766,0
127.1072506998888,37.288761205414716,0
127.1072512998842,37.28876370542029,0
127.10725199989263,37.28876600542131,0
127.10725279988992,37.28876820541295,0
127.10725359988537,37.28877050541814,0
127.10725429988429,37.28877270541441,0
127.10725509988299,37.2887748054195,0
127.10725589988512,37.28877670541548,0
127.10725679989054,37.28877900541618,0
127.10725769989423,37.28878070541642,0
127.10725859988496,37.28878250542101,0
127.10725959989364,37.28878450542141,0
127.10726059989275,37.28878640541707,0
127.1072615998903,37.28878840541727,0
127.10726259988955,37.28879030541291,0
127.10726349989177,37.28879210541766,0
127.10726469989292,37.28879440541337,0
127.10726569988893,37.288796505418084,0
127.10726659988987,37.288798405418355,0
127.10726769988302,37.28880060541395,0
127.10726909989084,37.28880300541404,0
127.10727029988715,37.28880490541832,0
127.10727139988366,37.288806905413786,0
127.10727269988811,37.288808905418115,0
127.10727399989125,37.28881100541799,0
127.10727539989294,37.288813105413176,0
127.10727679988497,37.28881510541263,0
127.10727809988973,37.28881710541692,0
127.10727919989118,37.28881880541668,0
127.10728059989293,37.28882090542083,0
127.10728159988491,37.28882260541604,0
127.1072831998888,37.288825105420194,0
127.10728459989244,37.28882710541974,0
127.10728659989203,37.288829505418654,0
127.10728899989377,37.28883210541713,0
127.10729069988477,37.288833905420326,0
127.10729259988739,37.28883550541423,0
127.10729429988332,37.28883700541274,0
127.10729659988796,37.288838805415175,0
127.10729859989367,37.288840105417684,0
127.10730039988304,37.28884120542005,0
127.10730259988604,37.28884250541313,0
127.10730549988801,37.28884390541414,0
127.1073076998842,37.2888449054203,0
127.10731009988883,37.28884590541724,0
127.10731269989193,37.288846805418196,0
127.10731529988547,37.28884760541437,0
127.10731809989004,37.28884820541921,0
127.10732069988968,37.288848605415055,0
127.10732329989212,37.28884880541978,0
127.10732559988952,37.28884890541579,0
127.10732869988752,37.288848905414795,0
127.10733129988472,37.28884870541895,0
127.10733379988349,37.28884850541877,0
127.1073361998839,37.28884830541422,0
127.10733899988924,37.28884810541798,0
127.10734169988653,37.28884780541265,0
127.10734449988357,37.28884740541598,0
127.10734839988945,37.28884680541262,0
127.10735069989255,37.288846505416956,0
127.10735299988455,37.28884620541206,0
127.10735559988746,37.28884560541549,0
127.10735819989178,37.2888449054143,0
127.1073607998849,37.28884420541288,0
127.10736339988917,37.28884350541157,0
127.10736589988356,37.28884280541477,0
127.10736829989084,37.288842105413806,0
127.10737069988387,37.28884160541274,0
127.10737309989105,37.28884090541169,0
127.10737559988371,37.28884030541922,0
127.10737789989247,37.28883960541381,0
127.10738029988671,37.28883900541698,0
127.10738249988418,37.288838405411596,0
127.1073852998863,37.28883760541377,0
127.10738749988352,37.28883700541729,0
127.10738969989217,37.28883640541195,0
127.10739199988636,37.28883590541519,0
127.10739429988327,37.28883520541827,0
127.1073968998857,37.288834605411765,0
127.107399599889,37.28883380541833,0
127.10740199988595,37.28883300541195,0
127.10740419989415,37.28883240541535,0
127.1074069998833,37.28883170541235,0
127.10740929989129,37.28883100541531,0
127.10741149988961,37.28883030541382,0
127.10741369988635,37.28882970541686,0
127.10741619989135,37.28882900541013,0
127.10741879988315,37.288828305416395,0
127.1074210998897,37.28882770541469,0
127.107423499886,37.288826905416855,0
127.1074256998941,37.288826305410836,0
127.10742839988426,37.28882560541209,0

            </coordinates>
        </LineString>
    </Placemark>
</Document>
</kml>
