<?xml version="1.0" encoding="UTF-8"?>
<kml xmlns="http://www.opengis.net/kml/2.2">
<Document>
    <name>Waypoints</name>
    <Style id="yellowLineGreenPoly">
        <LineStyle>
            <color>7f00ffff</color>
            <width>4</width>
        </LineStyle>
        <PolyStyle>
            <color>7f00ff00</color>
        </PolyStyle>
    </Style>
    <Placemark>
        <name>Path</name>
        <styleUrl>#yellowLineGreenPoly</styleUrl>
        <LineString>
            <coordinates>
127.10737429988716,37.28869210541449,0
127.10737649989295,37.288691405413715,0
127.10737929988964,37.288690605415844,0
127.10738169989035,37.28869000541903,0
127.10738409989254,37.288689305417606,0
127.10738639988374,37.288688705416256,0
127.10738879989304,37.28868830541057,0
127.10739109989117,37.288688005413974,0
127.1073937998936,37.28868770541648,0
127.10739649989196,37.28868770541456,0
127.107398999891,37.288687905413234,0
127.10740149988727,37.288688305411966,0
127.1074038998937,37.2886889054157,0
127.10740619988795,37.288689705415095,0
127.1074082998914,37.28869090541539,0
127.10741039989375,37.2886922054112,0
127.10741219989265,37.28869330541203,0
127.10741429988506,37.288694505412046,0
127.10741619989226,37.28869570541278,0
127.10741819988371,37.28869710541763,0
127.10742019988942,37.2886983054135,0
127.10742209988429,37.2886996054095,0
127.10742409988873,37.28870090540986,0
127.10742589988655,37.28870210541506,0
127.1074276998832,37.288703405415774,0
127.10742949989391,37.288704505416526,0
127.10743129989214,37.288705705412625,0
127.10743309989026,37.28870690541771,0
127.10743499988554,37.28870820541352,0
127.10743709989002,37.28870940541333,0
127.1074389998879,37.288710505417974,0
127.10744089988343,37.28871180541369,0
127.10744279989295,37.28871290540945,0
127.10744469988981,37.28871410540955,0
127.10744639989008,37.28871530541024,0
127.10744819989004,37.28871640541055,0
127.10745019988796,37.288717405414666,0
127.10745249989341,37.28871830541792,0
127.10745509988541,37.28871900541541,0
127.10745759989432,37.28871940541316,0
127.10746019989284,37.28871960541476,0
127.10746289989359,37.28871950541583,0
127.10746539988784,37.288719305412705,0
127.10746759989222,37.288718705414816,0
127.10746489988368,37.2887194054142,0
127.10746219988893,37.28871990541361,0
127.10745909989107,37.28872030540946,0
127.10745599988834,37.28872020540929,0
127.10745309989339,37.2887201054176,0
127.10745009988435,37.2887195054165,0
127.10744689989414,37.28871860541145,0
127.10744389988587,37.288717105414015,0
127.10744179988967,37.28871610541463,0
127.10743979989195,37.288715105410375,0
127.10743779988421,37.28871400541036,0
127.10743499989277,37.28871270541258,0
127.10743219988896,37.28871150541012,0
127.1074295998943,37.28871020541163,0
127.10742729989181,37.288709105416835,0
127.10742519988484,37.28870810541696,0
127.10742289988397,37.28870690541752,0
127.10741889988807,37.28870500541294,0
127.10741669989413,37.2887040054179,0
127.10741419988446,37.28870290541421,0
127.10741159988767,37.28870180541547,0
127.10740889989282,37.288700705412424,0
127.10740609988683,37.28869970541848,0
127.10740339988938,37.28869880541543,0
127.10740089988852,37.288697905411766,0
127.1073983998875,37.28869700541708,0
127.10739619989151,37.288696205412755,0
127.10739399988408,37.28869540541723,0
127.10739109989163,37.28869440541889,0
127.1073882998836,37.288693605415624,0
127.10738509989373,37.28869280541351,0
127.10738279988402,37.288692305418195,0
127.1073800998914,37.288691905410566,0
127.10737739988576,37.28869160541626,0
127.10737449989223,37.28869150541368,0
127.10737019989182,37.28869200541438,0
127.10736739988654,37.28869260541173,0
127.10736469988491,37.288693605413684,0
127.10736209989291,37.28869460541103,0
127.1073592998831,37.288695505412846,0
127.10735659988417,37.28869630541451,0
127.10735399988651,37.28869690541126,0
127.10735159988383,37.28869760541206,0
127.10734899989289,37.28869850541355,0
127.10734629989376,37.288699305414966,0
127.10734389989248,37.28869990541104,0
127.10734119989168,37.288700805416894,0
127.10733879988872,37.28870150541742,0
127.10733629988603,37.288702305418184,0
127.10733369988507,37.288703105414584,0
127.10733099988563,37.28870390541563,0
127.10732809988815,37.288704805412586,0
127.10732499989248,37.28870580541444,0
127.10732179988726,37.288706805411714,0
127.107319499892,37.28870760541188,0
127.10731709988706,37.28870840541651,0
127.10731459988385,37.28870920541678,0
127.10731219989032,37.28871000541249,0
127.10730999989312,37.28871080541677,0
127.10730709988391,37.288711705413,0
127.10730439989354,37.288712605418176,0
127.1073017998903,37.28871350541841,0
127.10729919988694,37.28871440541859,0
127.10729679988322,37.28871510541825,0
127.10729449988754,37.28871590541791,0
127.10729119988471,37.28871680541446,0
127.10728859989246,37.28871770541457,0
127.10728519988938,37.28871870542018,0
127.10728299988514,37.28871920541912,0
127.10728079988753,37.28872000541382,0
127.1072785998914,37.28872070541295,0
127.10727649989175,37.28872150542092,0
127.10727349989146,37.28872260542127,0
127.10727119989069,37.2887237054161,0
127.10726929988462,37.288724705414715,0
127.10726699989023,37.28872610541429,0
127.10726519988889,37.288727405413006,0
127.10726329988908,37.28872870541636,0
127.10726149988449,37.28873020541512,0
127.10725979989094,37.28873160541382,0
127.10725819989392,37.28873310542142,0
127.1072562998927,37.288735205416216,0
127.10725489988754,37.288737005419094,0
127.10725339989219,37.2887390054179,0
127.10725169989227,37.288742205417705,0
127.10725079989001,37.288744705420534,0
127.10725039989073,37.28874650541332,0
127.10725029988473,37.288749105419754,0
127.10725019988676,37.28875120542143,0
127.10725039988401,37.288753305418204,0
127.10725069989388,37.288755205419406,0
127.10725059988467,37.28875730542091,0
127.10725089988996,37.28875950541777,0
127.10725099988868,37.28876160541916,0
127.1072514998844,37.28876420541592,0
127.10725189988307,37.28876600541676,0
127.10725249989002,37.288768505413515,0
127.10725319988548,37.28877090541889,0
127.1072537998876,37.288773005415266,0
127.10725449988485,37.28877530541608,0
127.1072550998917,37.28877710541681,0
127.10725589988756,37.28877940541299,0
127.10725679988805,37.28878130541331,0
127.10725809988537,37.28878370541799,0
127.10725899988765,37.288785505413756,0
127.10726009988508,37.288787405413785,0
127.10726109988408,37.28878930541845,0
127.10726199988652,37.288791105414184,0
127.1072632998873,37.288793305418714,0
127.10726439988666,37.28879510541415,0
127.10726549989397,37.28879710541886,0
127.10726659989338,37.288798905414275,0
127.10726799989132,37.28880120541864,0
127.10726929989104,37.28880350541865,0
127.10727109989304,37.28880660541411,0
127.10727229988481,37.288808805414014,0
127.10727359988479,37.288811105413984,0
127.10727489988318,37.28881350541848,0
127.10727619988326,37.28881580541842,0
127.10727739988516,37.28881810541401,0
127.10727869988544,37.28882040541392,0
127.10727979989198,37.28882250541406,0
127.10728079989049,37.288824505414105,0
127.10728189989041,37.28882630541841,0
127.10728309989064,37.28882800541347,0
127.10728469988653,37.28883030541733,0
127.10728659989235,37.28883240541626,0
127.10728859988843,37.288834305419215,0
127.10729059988488,37.28883620541313,0
127.10729259988423,37.288837905415924,0
127.1072945998854,37.288839505414145,0
127.10729649988964,37.28884100541244,0
127.10729849989234,37.28884250541505,0
127.10730079989067,37.28884400541259,0
127.10730259989144,37.28884510541512,0
127.10730449989084,37.28884620541291,0
127.10730659988702,37.288847305419345,0
127.10730869988653,37.288848205416635,0
127.10731159989186,37.288849405417395,0
127.10731429989373,37.28885030541364,0
127.10731659988492,37.28885080541903,0
127.10731929988305,37.28885120541924,0
127.10732209989402,37.288851405414775,0
127.10732509988384,37.28885130541383,0
127.10732749989401,37.2888512054142,0
127.10733009989126,37.288851005418394,0
127.10733269989171,37.28885060541343,0
127.1073351998852,37.28885000541283,0
127.10733769988997,37.28884940541236,0
127.10733999988778,37.28884870541652,0
127.10734289988773,37.288848005419545,0
127.10734529989104,37.288847605414716,0
127.10734779988437,37.28884700541385,0
127.10735059988426,37.28884640541695,0
127.10735289989178,37.28884580541659,0
127.1073554998933,37.28884530541556,0
127.10735799988649,37.28884470541447,0
127.10736069988785,37.28884410541305,0
127.10736339989054,37.28884340541601,0
127.10736599989185,37.28884290541476,0
127.10736859988616,37.28884210541761,0
127.10737159988416,37.28884140541516,0
127.10737379989153,37.288840905414695,0
127.1073759998889,37.28884030541844,0
127.10737909988828,37.288839405410954,0
127.10738159989208,37.28883880541855,0
127.10738379989091,37.28883810541759,0
127.10738629988516,37.28883740541133,0
127.10738869989336,37.28883660541442,0
127.10739089989046,37.28883600541787,0
127.1073934998845,37.288835205411154,0
127.10739599989091,37.28883440541832,0
127.10739859988327,37.28883370541605,0
127.10740099989125,37.28883290541887,0
127.10740329988678,37.28883230541733,0
127.10740549988516,37.288831605415965,0
127.10740769989356,37.288831005410266,0
127.10740989988888,37.28883050541793,0
127.10741219988425,37.2888299054162,0
127.10741459989066,37.28882920541429,0
127.10741689988598,37.28882860541248,0
127.10741929989086,37.28882800541503,0
127.10742149988751,37.28882740541791,0
127.10742389989107,37.28882690541591,0
127.10742609988787,37.28882630540969,0
127.10742829988446,37.28882570541244,0

            </coordinates>
        </LineString>
    </Placemark>
</Document>
</kml>
