<?xml version="1.0" encoding="UTF-8"?>
<kml xmlns="http://www.opengis.net/kml/2.2">
<Document>
    <name>Waypoints</name>
    <Style id="yellowLineGreenPoly">
        <LineStyle>
            <color>7f00ffff</color>
            <width>4</width>
        </LineStyle>
        <PolyStyle>
            <color>7f00ff00</color>
        </PolyStyle>
    </Style>
    <Placemark>
        <name>Path</name>
        <styleUrl>#yellowLineGreenPoly</styleUrl>
        <LineString>
            <coordinates>
127.10729849989377,37.28862730541724,0
127.10729949988897,37.288629405412685,0
127.1073004998922,37.28863170541743,0
127.10730139989386,37.28863350541288,0
127.10730219988739,37.28863520541732,0
127.10730339989045,37.28863730541254,0
127.10730439988428,37.28863950541251,0
127.10730539988421,37.28864130541226,0
127.10730659988886,37.28864330541191,0
127.1073080998865,37.28864540542004,0
127.1073097998921,37.28864750541893,0
127.10731169988463,37.288649505412664,0
127.107313699891,37.28865120541521,0
127.10731569989085,37.288652605412885,0
127.10731829989274,37.288653905413966,0
127.10732039988689,37.28865480541993,0
127.10732299989354,37.28865580541625,0
127.10732539988555,37.2886565054169,0
127.10732839988961,37.28865720541663,0
127.10733059988824,37.28865770541749,0
127.10733289988661,37.28865810541806,0
127.10733619989286,37.28865830541667,0
127.10733919988333,37.288658405415454,0
127.10734179988383,37.28865830541491,0
127.10734459988372,37.28865800541379,0
127.10734729988519,37.288657705417315,0
127.10734969989369,37.2886573054124,0
127.10735219988895,37.28865690541152,0
127.10735469988401,37.288656505419624,0
127.10735799989055,37.288655905417016,0
127.10736059988409,37.28865550541123,0
127.10736349988478,37.28865500541381,0
127.10736579988479,37.288654505417576,0
127.10736819989309,37.28865410541228,0
127.10737209989296,37.28865320541217,0
127.1073746998903,37.28865250541942,0
127.10737719988968,37.28865180541335,0
127.10737949989233,37.288651105416726,0
127.1073823998887,37.28865010541388,0
127.10738509988693,37.28864920541603,0
127.10738769988707,37.288648305413865,0
127.10739079989087,37.28864730541045,0
127.1073929998837,37.288646605418165,0
127.10739549988405,37.28864580541613,0
127.1073979998843,37.28864500541404,0
127.10740149989329,37.28864390541391,0
127.10740499989087,37.28864280541349,0
127.10740709988532,37.288642105416685,0
127.10740919989124,37.288641405411035,0
127.10741199988705,37.28864050541676,0
127.10741469988466,37.28863960541822,0
127.10741719988597,37.28863870541116,0
127.10742079988391,37.288637405414356,0
127.10742329988366,37.28863660541173,0
127.10742579988462,37.2886357054135,0
127.10742919988587,37.28863440541703,0
127.10743219989303,37.288633205417185,0
127.10743429989111,37.28863220541521,0
127.10743649988724,37.2886312054174,0
127.10743979988412,37.288629505416,0
127.10744189988468,37.28862830541378,0
127.10744389988687,37.288627105416325,0
127.10744609988825,37.288625705409096,0
127.10744819989243,37.28862420541108,0
127.10744979989184,37.28862290541003,0
127.10745149989185,37.288621405413025,0
127.10745359989124,37.28861940540994,0
127.10745519989428,37.28861780541314,0
127.10745679988996,37.28861590541145,0
127.1074582998887,37.28861390541,0
127.10746039989334,37.28861060541036,0
127.10746169989245,37.28860710541278,0
127.1074621998907,37.28860480540947,0
127.10746249989116,37.288602605411356,0
127.10746259988927,37.28860000541349,0
127.10746249988465,37.28859790541205,0
127.10746219988751,37.28859550541559,0
127.10746199989352,37.28859360541026,0
127.1074614998928,37.28859090540959,0
127.10746099988697,37.288588605409146,0
127.1074602998852,37.28858540541315,0
127.1074597998907,37.28858310541288,0
127.1074592998922,37.28858110541731,0
127.10745879989135,37.288579305412824,0
127.10745819989339,37.288577405417605,0
127.1074573998935,37.28857510541361,0
127.10745669988894,37.288573005413916,0
127.10745599988331,37.28857100540976,0
127.10745499988704,37.28856870541541,0
127.10745409988381,37.28856680541644,0
127.10745319988465,37.2885646054128,0
127.10745169988752,37.28856140541011,0
127.10745079988703,37.288559305411006,0
127.107449899884,37.288557405412014,0
127.10744889988688,37.28855520541316,0
127.10744759988965,37.28855260541033,0
127.10744659989263,37.28855040541145,0
127.10744549988358,37.28854840541732,0
127.10744429988473,37.28854580540963,0
127.10744329988384,37.28854390541541,0
127.10744239989383,37.28854190541199,0
127.10744119988968,37.28853970541351,0
127.10744019988319,37.288537405409855,0
127.1074384998934,37.288534005416516,0
127.10743739988885,37.28853170541764,0
127.10743629988318,37.28852950541431,0
127.10743539988492,37.28852730541054,0
127.10743429989044,37.28852510541639,0
127.1074332998929,37.28852300541296,0
127.10743229988418,37.28852090540936,0
127.10743129988532,37.28851890541048,0
127.10742979988703,37.28851590541668,0
127.10742869989036,37.28851390541357,0
127.1074275998938,37.288511905410466,0
127.10742639988634,37.288510005416526,0
127.10742529988987,37.28850800541342,0
127.10742409988548,37.28850590541033,0
127.10742299988885,37.288503905416206,0
127.10742179988318,37.288501905417675,0
127.10742059989023,37.28849980541473,0
127.10741939988608,37.288497705411615,0
127.10741829988972,37.28849570541743,0
127.1074171998851,37.288493505413946,0
127.10741619988697,37.28849150541496,0
127.1074150998937,37.28848930541163,0
127.10741409988569,37.2884872054169,0
127.10741309989044,37.28848500541777,0
127.10741209989402,37.288482905414185,0
127.10741109988759,37.28848070541486,0
127.10741009988985,37.288478705415834,0
127.10740909989353,37.28847660541223,0
127.10740799988795,37.28847450541322,0
127.10740699989154,37.2884724054186,0
127.10740589988484,37.28847040541514,0
127.10740499988664,37.28846830541573,0
127.1074038998913,37.28846630541243,0
127.10740279988597,37.288464205413376,0
127.10740179988859,37.288462205414284,0
127.10740059988404,37.28846020541555,0
127.10739949989018,37.28845810541666,0
127.10739839988511,37.28845600541757,0
127.10739719989205,37.288454005418984,0
127.10739619988516,37.2884519054151,0
127.10739509989153,37.288449805416185,0
127.10739389988734,37.28844780541738,0
127.10739289989195,37.28844570541365,0
127.10739179988718,37.2884436054145,0
127.10739019988426,37.28844050541126,0
127.10738899989289,37.288438405417054,0
127.107387799889,37.2884364054182,0
127.10738599989051,37.28843330541544,0
127.10738479988683,37.28843130541656,0
127.10738369989377,37.288429205417536,0
127.10738249989024,37.288427205418635,0
127.10738129988695,37.28842520541072,0
127.10738009988351,37.288423205411796,0
127.10737889989143,37.288421205413044,0
127.10737769988809,37.28841920541411,0
127.107376399887,37.288417205410916,0
127.10737519988378,37.288415205411944,0
127.10737399989041,37.28841330541771,0
127.10737199988313,37.288410405415206,0
127.10737069988362,37.288408305416404,0
127.10736939989418,37.28840630541331,0
127.10736739988852,37.28840330541517,0
127.10736609988646,37.288401405416444,0
127.10736459988868,37.28839950541819,0
127.10736309989122,37.28839760541089,0
127.10736149989425,37.28839580541292,0
127.10735969989037,37.28839400541522,0
127.1073578998866,37.28839220541751,0
127.10735599989344,37.2883906054158,0
127.10735399989278,37.28838890541406,0
127.10735199988926,37.288387405412394,0
127.10734999988426,37.28838600541527,0
127.10734789989424,37.28838450541847,0
127.10734579989315,37.288383005412456,0
127.1073435998927,37.28838160541568,0
127.10734149988878,37.28838030541872,0
127.10733929988709,37.28837900541743,0
127.10733699988623,37.28837780541639,0
127.1073345998847,37.28837680541113,0
127.1073321998844,37.2883757054193,0
127.10732969988373,37.288374805414236,0
127.10732579988361,37.28837360541596,0
127.10732319989344,37.288372905415784,0
127.10732049989116,37.28837240542019,0
127.10731789988684,37.28837190541983,0
127.10731389989039,37.28837140541295,0
127.1073111998852,37.28837110541727,0
127.10730849988856,37.2883710054128,0
127.10730579989178,37.288370905417295,0
127.10730299989419,37.28837100541751,0
127.10730029988329,37.2883711054128,0
127.10729749989399,37.28837140541318,0
127.10729479988973,37.2883718054132,0
127.10729199988444,37.28837240541794,0
127.10728929988694,37.28837310541366,0
127.10728659989077,37.288373705413775,0
127.10728399989235,37.28837430541814,0
127.10728139989251,37.288375005418,0
127.10727909988624,37.288375705412754,0
127.10727619989257,37.28837640541754,0
127.10727389988595,37.288377105421205,0
127.10727169988864,37.288377805420325,0
127.10726909988402,37.28837880541558,0
127.10726639988438,37.28837960541532,0
127.10726399989115,37.28838030541464,0
127.10726139988927,37.28838110541861,0
127.10725929988962,37.288381805412826,0
127.10725699989405,37.28838250541633,0
127.10725449988993,37.288383305415486,0
127.10725179989004,37.28838410541489,0
127.10724779989201,37.288385105420446,0
127.1072449998943,37.28838590541534,0
127.10724219989305,37.28838690541927,0
127.10723949988974,37.28838790541849,0
127.10723689988441,37.288388905413,0
127.10723429988995,37.28838990541664,0
127.10723159988645,37.288390905415675,0
127.10722899989364,37.28839180541464,0
127.10722649988575,37.288392805413295,0
127.10722389989257,37.28839370542114,0
127.10722139988454,37.28839470541966,0
127.10721889988947,37.28839560541378,0
127.10721629988485,37.288396505421275,0
127.10721379988964,37.28839740541527,0
127.10721129989264,37.28839840541376,0
127.1072085998901,37.288399305416704,0
127.10720599988365,37.288400305419515,0
127.10720339988849,37.288401305422454,0
127.10720079989348,37.288402305416334,0
127.10719809989064,37.288403205419016,0
127.10719559989323,37.28840420541717,0
127.1071928998903,37.28840510541974,0
127.10719029988347,37.2884061054222,0
127.10718769988969,37.288407005420225,0
127.1071850998845,37.288407905418026,0
127.10718249989061,37.28840880541591,0
127.10717979988736,37.28840970541818,0
127.10717719989327,37.28841060541596,0
127.10717449989144,37.288411405422565,0
127.10717179989156,37.288412105415524,0
127.10716909988963,37.288412905422,0
127.10716649988409,37.28841380541936,0
127.10716379989351,37.28841460541687,0
127.10716109989137,37.28841540542315,0
127.10715849988746,37.288416205415785,0
127.10715589988324,37.28841700541737,0
127.10715319989069,37.28841790541918,0
127.10715059988637,37.28841870542063,0
127.10714799989324,37.28841950542222,0
127.10714529988923,37.28842040542367,0
127.10714279989243,37.288421305416115,0
127.10714029989356,37.28842230542205,0
127.10713789988317,37.28842320541866,0
127.10713549989346,37.28842420542012,0
127.10713309989238,37.288425205421355,0
127.10713089988546,37.28842630541798,0
127.1071285998934,37.28842730542375,0
127.1071264998938,37.28842850542046,0
127.10712449989201,37.288429705421606,0
127.10712279988401,37.28843090541807,0
127.10712049988568,37.288432905415334,0
127.10711919988643,37.28843440541658,0
127.1071177998891,37.28843590542236,0
127.10711659988597,37.2884375054236,0
127.10711529988325,37.2884392054159,0
127.10711419988394,37.28844110541739,0
127.10711309988457,37.28844300541888,0
127.10711199988347,37.28844500541588,0
127.10711109988762,37.28844710541754,0
127.10711029988794,37.28844930541921,0
127.10710949988999,37.28845140541632,0
127.10710879988639,37.28845370541799,0
127.10710829989155,37.288455905424236,0
127.10710799989282,37.28845810542142,0
127.10710769989359,37.28846160542406,0
127.10710779988668,37.288463805421095,0
127.10710809988697,37.28846600541827,0
127.10710839988727,37.28846820541544,0
127.10710889988522,37.288470305417,0
127.10710939988486,37.28847230542302,0
127.10711009988418,37.288474105419866,0
127.10711079988356,37.28847590541672,0
127.10711169989071,37.288478305423155,0
127.10711249989065,37.28848060542037,0
127.10711329989408,37.2884827054175,0
127.10711409988613,37.28848480542343,0
127.10711529988855,37.288487805416686,0
127.10711609988843,37.2884901054229,0
127.107117199894,37.28849240541567,0
127.10711839989214,37.28849500541753,0
127.10711959989385,37.28849740541928,0
127.10712039989342,37.288499105415994,0
127.10712129989096,37.288500805417165,0
127.10712209989033,37.28850250542288,0
127.10712299988788,37.28850420542403,0
127.10712389988572,37.28850590541617,0
127.10712469989302,37.288507805422135,0
127.10712569988888,37.28850950541874,0
127.10712649988871,37.2885112054154,0
127.10712749989052,37.28851320541682,0
127.1071282998902,37.28851490542248,0
127.10712919988642,37.288516705419156,0
127.10713009989209,37.28851860542053,0
127.10713099988658,37.28852050542172,0
127.10713179988662,37.28852220541837,0
127.10713289988344,37.28852440541527,0
127.10713369989111,37.28852630542118,0
127.10713459988416,37.28852830541789,0
127.10713559989259,37.288530605415055,0
127.10713649988392,37.288532705416316,0
127.10713749989408,37.28853490541792,0
127.10713829988724,37.28853700542372,0
127.1071396998926,37.288539705421016,0
127.10714049989116,37.288541505422145,0
127.10714159988508,37.288543905419075,0
127.10714239988374,37.28854570542021,0
127.10714319989374,37.28854750542151,0
127.10714409989231,37.28854920542253,0
127.10714519989142,37.28855130542378,0
127.107146299889,37.28855350542057,0
127.10714709988969,37.288555205417126,0
127.10714819989063,37.28855720542281,0
127.10714919989204,37.28855930541959,0
127.10715039988627,37.28856160541634,0
127.10715129988513,37.288563305417306,0
127.10715219988398,37.28856500541826,0
127.10715309988295,37.28856670541922,0
127.10715409988802,37.288568605415854,0
127.10715529989196,37.288571005417296,0
127.10715629988563,37.288572905422754,0
127.1071574998915,37.28857520541962,0
127.10715869988782,37.28857740542075,0
127.10715959988545,37.2885792054172,0
127.107160599889,37.28858120541835,0
127.10716169988908,37.28858330541947,0
127.10716279988758,37.28858550541613,0
127.10716389988771,37.288587605417234,0
127.10716479989328,37.28858960542293,0
127.10716579989102,37.28859130541921,0
127.10716689988347,37.288593205420014,0
127.10716789988578,37.28859530541666,0
127.10716889989136,37.28859720542221,0
127.10716989988411,37.28859920542311,0
127.10717089989,37.28860110541963,0
127.10717209988886,37.28860320541608,0
127.10717309989306,37.28860520541714,0
127.10717389988336,37.28860690542235,0
127.10717499988431,37.28860900541436,0
127.10717579988602,37.28861070541974,0
127.10717669989394,37.288612605420795,0
127.10717759989393,37.28861430542158,0
127.10717859989049,37.28861610542233,0
127.10717959988706,37.288617905423045,0
127.10718059988857,37.288620105415134,0
127.10718169989119,37.28862210542055,0
127.10718259989147,37.288623805421295,0
127.10718359989004,37.28862550541746,0
127.10718469988491,37.28862730542257,0
127.10718569988363,37.28862900541869,0
127.10718679989012,37.28863080541496,0
127.10718799988626,37.288633105420374,0
127.10718899988512,37.28863480541647,0
127.10718979988735,37.28863650542177,0
127.10719089989405,37.288638305418004,0
127.10719219988725,37.288640705414316,0
127.10719309988616,37.288642505419546,0
127.1071941998897,37.28864450541585,0
127.10719549988622,37.28864670542105,0
127.10719669988465,37.28864890542184,0
127.10719779988662,37.28865100542265,0
127.1071987998859,37.28865270541868,0
127.10719969988683,37.28865440541931,0
127.10720079988894,37.28865650542011,0
127.10720189988318,37.288658405420605,0
127.10720289989064,37.2886603054169,0
127.1072039998929,37.288662405417654,0
127.10720529988691,37.288664805413845,0
127.10720669988862,37.288667305419146,0
127.10720789989236,37.2886699054202,0
127.10720899988684,37.288672505416656,0
127.10721019989079,37.288675105417674,0
127.10721099989229,37.2886776054144,0
127.1072117998852,37.28868130542087,0
127.10721219988575,37.288683605417745,0
127.10721239988982,37.28868590541483,0
127.10721229988413,37.28868910542169,0
127.10721229988361,37.288691205418715,0
127.10721259988915,37.28869330542012,0
127.1072132998895,37.28869530541652,0
127.10721399988968,37.28869730542191,0
127.10721469989018,37.288699305418305,0
127.1072154998873,37.28870140541463,0
127.10721619988607,37.288703505415555,0
127.1072168998831,37.28870570542103,0
127.10721769989163,37.28870780541752,0
127.10721819989065,37.28871010541876,0
127.10721839988368,37.28871240541566,0
127.10721839989284,37.288714605417425,0
127.10721799988623,37.28871680541928,0
127.10721729988482,37.28871900541698,0
127.10721629989014,37.288721105414936,0
127.10721489989231,37.28872310541762,0
127.10721339988817,37.28872490541562,0
127.10721159988897,37.28872670541842,0
127.10720959988677,37.28872820541657,0
127.10720739988942,37.28872960541934,0
127.10720399989265,37.288731505418866,0
127.1072017998871,37.28873270542126,0
127.10719959989305,37.288733905414794,0
127.10719729988892,37.2887351054217,0
127.10719509988489,37.28873620541943,0
127.10719279989218,37.288737405417415,0
127.10719049988805,37.28873860541519,0
127.10718809988882,37.28873960541741,0
127.10718569988612,37.28874080541967,0
127.10718199988712,37.28874240541845,0
127.10717959988422,37.288743605420585,0
127.1071770998864,37.28874460541815,0
127.10717459988676,37.288745705420226,0
127.10717209988702,37.288746805422214,0
127.10716949988895,37.288747905419726,0
127.10716699988906,37.28874900542163,0
127.10716469988422,37.288750205418864,0
127.10716219988417,37.288751305420654,0
127.10715969988414,37.28875240542238,0
127.10715719988582,37.28875340541951,0
127.10715469988739,37.28875440541659,0
127.10715209989203,37.28875530542261,0
127.1071495998935,37.28875630541958,0
127.10714699988522,37.288757305420866,0
127.1071443998899,37.288758205417714,0
127.10714179988304,37.28875910542334,0
127.10713919988599,37.288760105415605,0
127.10713659989032,37.288761005421286,0
127.10713409989303,37.288761905422376,0
127.10713029989107,37.28876300541912,0
127.10712799989035,37.288763905420005,0
127.10712579988974,37.28876470542076,0
127.10712359989097,37.2887654054169,0
127.1071205998866,37.28876650542227,0
127.10711849988603,37.28876720542279,0
127.1071163998837,37.288768005418845,0
127.10711399988608,37.288768805419416,0
127.10711159988843,37.28876960541994,0
127.10710919989076,37.28877040542041,0
127.10710669989285,37.28877130542089,0
127.10710439989356,37.28877210541675,0
127.10710209989035,37.288773105421626,0
127.10709999988775,37.28877390541738,0
127.10709789988479,37.28877470542208,0
127.10709479989113,37.28877590541799,0
127.10709169988935,37.288776905422544,0
127.10708949988803,37.28877770542259,0
127.10708719988834,37.2887785054181,0
127.10708499989052,37.28877910541799,0
127.10708269989057,37.28877990542241,0
127.10708039989245,37.28878060542225,0
127.10707719989405,37.28878150541735,0
127.10707409989381,37.28878240541689,0
127.10707119989031,37.28878330541639,0
127.10706849988324,37.28878420542485,0
127.10706549989261,37.28878510541985,0
127.10706229989366,37.28878600542355,0
127.1070599998934,37.28878680541852,0
127.10705749988684,37.288787505417666,0
127.107054899893,37.28878820542141,0
127.10705229988613,37.28878900542047,0
127.10704949989362,37.28878980541957,0
127.10704689988665,37.2887906054185,0
127.10704439988915,37.28879140542209,0
127.10704189989154,37.288792205425615,0
127.10703949988316,37.28879290541992,0
127.10703719988432,37.28879360541889,0
127.1070348998834,37.28879440542236,0
127.10703249988595,37.288795105425685,0
127.10703009988666,37.2887959054245,0
127.10702759988901,37.28879670541872,0
127.10702499989283,37.288797505417335,0
127.10702249988361,37.288798305420265,0
127.1070198998853,37.2887992054233,0
127.10701729988897,37.28880000542174,0
127.10701469989255,37.288800805420124,0
127.1070119998845,37.28880170541824,0
127.10700929988747,37.288802605425474,0
127.10700659989256,37.288803405419095,0
127.10700399988443,37.288804205426075,0
127.10700139988774,37.28880500542415,0
127.10699879989104,37.28880580542217,0
127.10699619988296,37.28880660541994,0
127.1069936998939,37.28880750541815,0
127.10699109988552,37.28880830542483,0
127.10698849988852,37.28880910542261,0
127.1069858998895,37.28881000542488,0
127.10698319989413,37.288810805417945,0
127.10698059988366,37.288811705419924,0
127.10697799988631,37.288812505426485,0
127.10697539988905,37.28881330542397,0
127.10697269989323,37.28881410542581,0
127.10697009989406,37.28881500541872,0
127.10696749988522,37.28881580542485,0
127.1069648998877,37.288816605422106,0
127.1069623998867,37.288817505419445,0
127.10695989988746,37.288818305421195,0
127.10695749988675,37.288819105418504,0
127.10695509988572,37.28881990542475,0
127.10695279988319,37.28882070542658,0
127.10695069989086,37.28882140542423,0
127.10694849988684,37.28882220542158,0
127.10694639988317,37.28882290541896,0
127.10694329988898,37.288823905419704,0
127.10694019989262,37.2888250054249,0
127.10693789988981,37.28882580542642,0
127.10693549988859,37.28882660542326,0
127.10693309988737,37.28882740542005,0
127.10693049988703,37.28882830542108,0
127.10692789988667,37.28882920542202,0
127.10692529988815,37.288830005427386,0
127.10692259988933,37.28883090542358,0
127.10692009988735,37.28883180541999,0
127.10691759988511,37.28883270542535,0
127.10691509988492,37.28883350542613,0
127.10691269988516,37.288834205426966,0
127.10691049989167,37.28883500542376,0
127.10690819988827,37.288835805424696,0
127.10690609989294,37.28883660542606,0
127.106903899888,37.28883740542255,0
127.10690149988591,37.28883820542769,0
127.1068989998854,37.28883900542811,0
127.10689649988505,37.28883980541947,0
127.10689399988445,37.288840605419786,0
127.10689129988684,37.288841405419724,0
127.10688869988756,37.28884220542426,0
127.10688599988991,37.28884300542406,0
127.1068832998921,37.2888438054238,0
127.10688059989216,37.28884470542801,0
127.10687799989283,37.28884550542331,0
127.10687389988549,37.288846705420085,0
127.10686979988711,37.28884800542143,0
127.10686709988899,37.2888488054208,0
127.10686439989088,37.288849605420076,0
127.10686169989049,37.28885050542385,0
127.10685899989222,37.28885130542301,0
127.10685639989228,37.288852105426834,0
127.10685369989392,37.28885290542587,0
127.10685099988424,37.28885370542467,0
127.1068483998841,37.28885450542829,0
127.10684569988558,37.288855305427155,0
127.10684309988564,37.28885610542166,0
127.10684039988672,37.28885690542939,0
127.10683779988668,37.28885770542377,0
127.10683529988489,37.28885850542281,0
127.10683279988301,37.28885930542179,0
127.1068303998908,37.28886010542563,0
127.10682809988789,37.28886080542942,0
127.10682579988719,37.28886140542864,0
127.10682369989263,37.288862105423966,0
127.1068214998882,37.28886280542334,0
127.10681909988672,37.28886350542223,0
127.10681679988356,37.2888642054258,0
127.10681439989104,37.288865005429294,0
127.10681179989247,37.288865705427554,0
127.1068091998939,37.28886640542576,0
127.10680649989223,37.28886730542824,0
127.10680379989284,37.288868105426104,0
127.10680109989342,37.288868905423925,0
127.10679849989022,37.288869805421946,0
127.1067958998867,37.28887070542891,0
127.1067932998834,37.288871605426834,0
127.10679059989268,37.288872505429104,0
127.10678809988784,37.28887340542264,0
127.10678549988413,37.288874305429374,0
127.10678299988358,37.28887500542274,0
127.10678069988668,37.288875905425826,0
127.10677839989197,37.28887670542433,0
127.1067760998881,37.28887740542708,0
127.10677379988418,37.2888781054298,0
127.10677149988494,37.28887860542338,0
127.10676909988463,37.2888792054257,0
127.1067667998851,37.28887970542821,0
127.10676439988713,37.288880205425905,0
127.10676179988972,37.28888080542752,0
127.1067590998848,37.28888130542858,0
127.10675639988435,37.28888160542953,0
127.10675359988542,37.28888190542562,0
127.10675089988706,37.288882105430915,0
127.1067479998828,37.288882205430866,0
127.10674519988841,37.288882305426704,0
127.10674229988862,37.288882205426454,0
127.10673939989108,37.288882005430615,0
127.10673659988325,37.28888170542578,0
127.10673239988492,37.28888090542967,0
127.10672849988688,37.288879905429766,0
127.10672589989,37.28887900542514,0
127.10672329988618,37.28887790542924,0
127.10672079989244,37.288876805429254,0
127.10671839988598,37.28887570542485,0
127.10671609989153,37.28887450542989,0
127.10671399989198,37.28887340543104,0
127.10671199988438,37.288872105427735,0
127.10671019988509,37.288870805425226,0
127.1067083998923,37.28886970543193,0
127.10670659989097,37.28886850542489,0
127.1067048998878,37.288867305431665,0
127.10670319988499,37.288866105429406,0
127.10670149989342,37.2888649054273,0
127.10669969988322,37.28886360542446,0
127.10669789988663,37.28886220542625,0
127.10669599989389,37.28886070542766,0
127.10669399989165,37.28885920542402,0
127.1066919998917,37.288857605424816,0
127.1066898998844,37.28885590542506,0
127.10668779988848,37.28885420542542,0
127.10668589988714,37.288852605430975,0
127.10668409988692,37.2888509054278,0
127.10668259988859,37.288849405430376,0
127.1066799998834,37.28884700542818,0
127.10667819988339,37.28884530542492,0
127.10667629988968,37.28884340542576,0
127.1066749998886,37.28884190542894,0
127.10667359989142,37.28884030543172,0
127.10667209988723,37.288838605424935,0
127.10667049988905,37.28883670543123,0
127.10666879989259,37.28883480543265,0
127.10666719988596,37.28883280542519,0
127.10666579988487,37.28883090543214,0
127.10666369988486,37.28882800543128,0
127.10666249989004,37.288826205425615,0
127.10666139988884,37.288824605424836,0
127.10665979988718,37.28882240542625,0
127.10665849988982,37.288820305428935,0
127.10665719989244,37.288818205431596,0
127.10665539988845,37.288815305427185,0
127.10665409989377,37.28881310542529,0
127.1066528998884,37.288810805432554,0
127.10665119989261,37.28880750543286,0
127.10665039989202,37.28880570542856,0
127.10664949989041,37.28880400543291,0
127.1066480998936,37.28880150543033,0
127.10664659988711,37.288799005431684,0
127.10664569988815,37.288797205431486,0
127.10664469989102,37.28879540542639,0
127.10664389989049,37.288793605431074,0
127.10664319989095,37.28879170542706,0
127.10664239989052,37.28878990543171,0
127.10664179988936,37.28878800543258,0
127.10664069989305,37.288785305426494,0
127.10663979988549,37.28878340543056,0
127.10663849988363,37.288780605427995,0
127.1066376998834,37.288778805432614,0
127.10663689989211,37.28877710543295,0
127.10663579988888,37.2887747054314,0
127.10663469989215,37.28877250543009,0
127.10663359989066,37.28877050542879,0
127.10663249989149,37.28876840543199,0
127.10663169988916,37.2887667054321,0
127.10663079988868,37.288765005427315,0
127.10662989989287,37.28876310543148,0
127.10662889989004,37.28876110542605,0
127.10662789988966,37.28875900542507,0
127.1066267998908,37.288756905428215,0
127.10662569989205,37.28875480543135,0
127.10662459988454,37.288752605429764,0
127.10662349988593,37.28875050543288,0
127.1066224998858,37.28874840543186,0
127.10662139988979,37.288746205430435,0
127.10662039988972,37.288744105429416,0
127.10661939988974,37.28874200542837,0
127.1066182998914,37.28873990543144,0
127.10661729989405,37.28873770542586,0
127.10661619988451,37.28873560542873,0
127.10661509988891,37.288733405427244,0
127.1066141998899,37.288731205426544,0
127.10661319988539,37.28872930542552,0
127.10661239988389,37.288727605425514,0
127.10661119988701,37.28872460542753,0
127.10661039988565,37.28872290542751,0
127.10660949988842,37.288721105427065,0
127.10660809988622,37.28871800543257,0
127.1066070998869,37.28871590543144,0
127.10660619989089,37.288713605426146,0
127.10660499989106,37.28871120542844,0
127.10660369988376,37.28870780542505,0
127.10660239988827,37.28870530542688,0
127.10660159988961,37.28870350543129,0
127.1066007998936,37.288701605431164,0
127.1065997998874,37.288699805425544,0
127.1065987998883,37.288697705433364,0
127.10659789989163,37.28869590543283,0
127.10659649989206,37.28869320542948,0
127.10659569988984,37.28869110542908,0
127.106594799887,37.288689105428304,0
127.10659379988581,37.288687105431606,0
127.10659269988655,37.288685105429984,0
127.10659159989227,37.288682905428296,0
127.10659039988843,37.288680705430515,0
127.10658939989008,37.28867860542925,0
127.10658839988679,37.28867670542804,0
127.10658749989062,37.288674905427435,0
127.10658639989029,37.28867250542547,0
127.10658529989118,37.2886705054328,0
127.1065845998916,37.28866870543301,0
127.10658369988928,37.28866670543216,0
127.10658229988574,37.2886642054287,0
127.10658139988354,37.28866220542782,0
127.10658039988803,37.28866000543097,0
127.10657899988689,37.28865650542687,0
127.10657749988758,37.28865300542684,0
127.10657649988339,37.28865070543425,0
127.10657569989104,37.28864870542944,0
127.1065747998852,37.288646405432765,0
127.10657409988607,37.28864460543292,0
127.10657329988493,37.2886425054324,0
127.10657269988418,37.28864070542848,0
127.10657209988445,37.28863840542874,0
127.1065715998931,37.28863660542994,0
127.10657099988344,37.2886347054303,0
127.10657029988784,37.28863140543403,0
127.10656979988917,37.28862900542568,0
127.10656969988918,37.28862680542832,0
127.10656959989183,37.288624505426405,0
127.10656959988755,37.288622405429486,0
127.10656979988846,37.28862040542913,0
127.10656999988937,37.28861840542877,0
127.10657059988885,37.28861570543427,0
127.10657089988304,37.28861390542988,0
127.10657139988446,37.288611205430435,0
127.10657189988343,37.28860860542652,0
127.10657259988729,37.288606105428165,0
127.10657299989069,37.288604305428876,0
127.10657389989072,37.28860180543136,0
127.1065747998884,37.28859940542935,0
127.1065754998921,37.28859690543098,0
127.1065767998934,37.28859450543084,0
127.10657769988468,37.28859280543367,0
127.10657859988746,37.28859110542767,0
127.10657949989253,37.28858930542613,0
127.10658059988721,37.28858730543421,0
127.10658189988484,37.28858550542533,0
127.10658339988333,37.28858350542623,0
127.10658489989048,37.28858160543181,0
127.10658669988952,37.28857980542961,0
127.10658839988399,37.28857780543129,0
127.10659029988344,37.28857590542943,0
127.10659239988279,37.28857430543313,0
127.10659449989363,37.28857270542795,0
127.10659659989044,37.28857120542711,0
127.10659869989105,37.28857000543099,0
127.10660129988956,37.288568505427726,0
127.10660349989206,37.28856760543217,0
127.10660609988707,37.28856670542916,0
127.10660869989327,37.28856580542627,0
127.10661109988462,37.28856520542694,0
127.10661369988819,37.288564405428474,0
127.10661649989041,37.28856350542619,0
127.10661879988594,37.28856280542628,0
127.10662119988838,37.28856220542691,0
127.10662359988913,37.28856120542721,0
127.10662619989245,37.28856040542846,0
127.10662869988649,37.288559605424574,0
127.10663079988542,37.28855890543267,0
127.10663299988273,37.2885582054276,0
127.10663579988679,37.28855720542932,0
127.10663889988987,37.28855600542752,0
127.10664139988992,37.28855540543261,0
127.10664369988977,37.288554505432145,0
127.10664619989221,37.288553805432606,0
127.10664869988331,37.288553105432825,0
127.10665109988997,37.28855230543278,0
127.10665359988575,37.28855140543284,0
127.10665609989047,37.288550605428554,0
127.10665879989133,37.28854980542491,0
127.1066614998896,37.28854910542573,0
127.10666409989213,37.288548305426104,0
127.10666679989029,37.28854760542682,0
127.10666949988845,37.28854690542745,0
127.10667209989084,37.28854610542767,0
127.10667479988885,37.28854540542818,0
127.10667729988411,37.28854450542772,0
127.1066795998855,37.28854350543101,0
127.10668189989359,37.288542705425506,0
127.10668419988794,37.28854200542427,0
127.10668719988904,37.288540905429876,0
127.10669009988995,37.2885399054261,0
127.10669289989264,37.288538905426414,0
127.10669599989166,37.2885378054276,0
127.10669819988759,37.288537105430294,0
127.10670049988626,37.28853620542868,0
127.10670299989003,37.28853540542337,0
127.10670549988687,37.28853440542676,0
127.10670809989058,37.28853350543062,0
127.10671079989245,37.288532605430234,0
127.10671339988507,37.288531705424795,0
127.10671609988684,37.28853080542427,0
127.10671879988851,37.28852990542369,0
127.10672159988805,37.28852900542785,0
127.10672429988749,37.28852820542267,0
127.10672689988844,37.28852740543065,0
127.10672959988773,37.288526605425346,0
127.10673229988915,37.28852570542443,0
127.10673489989016,37.28852490542322,0
127.1067373998906,37.28852420543071,0
127.10673969988389,37.28852350542839,0
127.10674199988385,37.28852250543041,0
127.10674419989041,37.288521805423386,0
127.10674629988965,37.28852100542484,0
127.10674849988676,37.288520205431034,0
127.10675069989323,37.288519505423885,0
127.10675299989053,37.288518605430234,0
127.10675529988585,37.28851780542305,0
127.10675779988829,37.288517005425554,0
127.10676019989272,37.288516205423214,0
127.10676259988789,37.28851530542514,0
127.10676489988285,37.288514505426775,0
127.106767199889,37.28851370542854,0
127.10676959989323,37.288512905426025,0
127.10677179988778,37.288512205427295,0
127.10677389988881,37.28851130542371,0
127.10677639989085,37.2885105054258,0
127.10677859988968,37.288509605426874,0
127.10678089989344,37.288508905423896,0
127.10678329988377,37.28850820542545,0
127.10678549988937,37.288507505426644,0
127.1067884998857,37.28850650542512,0
127.1067912998836,37.28850560542758,0
127.10679409989066,37.28850480542568,0
127.10679719989386,37.28850390542439,0
127.1067993998879,37.28850320542513,0
127.10680179988917,37.28850250542648,0
127.10680439988872,37.28850170542369,0
127.10680699989028,37.28850080542532,0
127.10680959989176,37.288499905426875,0
127.10681239988925,37.28849900542882,0
127.1068151998868,37.28849810542169,0
127.10681779988812,37.28849720542307,0
127.1068203998871,37.28849640542894,0
127.10682309988867,37.28849540542136,0
127.10682569988754,37.28849460542709,0
127.10682839988444,37.28849380542847,0
127.10683099988549,37.28849290542954,0
127.10683349988656,37.28849210542139,0
127.10683619988528,37.28849120542707,0
127.10683889989127,37.28849050542391,0
127.10684149989204,37.28848960542476,0
127.10684409989076,37.28848880542106,0
127.10684679989151,37.28848780542194,0
127.10684929988277,37.28848690542674,0
127.10685189988331,37.288486005427345,0
127.10685459988387,37.288485005428036,0
127.10685709988641,37.28848410542383,0
127.10685959988865,37.288483205428584,0
127.10686199989104,37.288482405424126,0
127.10686479988945,37.28848140542024,0
127.10686709988431,37.2884805054243,0
127.10686949988624,37.28847970542869,0
127.10687189989036,37.288478805428504,0
127.10687399988518,37.288478105423145,0
127.10687669989235,37.28847730542357,0
127.10687939988293,37.28847620542797,0
127.10688169988481,37.28847550542298,0
127.10688409988649,37.28847470542706,0
127.10688779989287,37.288473505419844,0
127.10689029988514,37.28847250542821,0
127.10689279988468,37.28847170542777,0
127.10689539988421,37.28847080542738,0
127.10689799989301,37.28847000542266,0
127.10690059988309,37.288469005426435,0
127.10690339988965,37.288468105426354,0
127.10690599988703,37.28846730542126,0
127.1069087998913,37.28846650542558,0
127.10691129989263,37.28846560542018,0
127.10691379989369,37.288464705423756,0
127.10691619988555,37.28846380542245,0
127.10691849988463,37.288463205421266,0
127.10692069989176,37.28846230541979,0
127.10692379989159,37.288461405424094,0
127.10692669988629,37.28846040542333,0
127.10692879989327,37.28845960542161,0
127.10693109989403,37.28845890542464,0
127.10693339988559,37.2884581054229,0
127.10693579988828,37.288457205421366,0
127.10693839989413,37.28845650542027,0
127.10694109988648,37.28845580542355,0
127.10694349988908,37.28845490542186,0
127.1069457998843,37.28845390541977,0
127.10694809988868,37.28845300542238,0
127.10695069988883,37.28845200542521,0
127.10695299988939,37.28845130541879,0
127.10695549989131,37.28845030542591,0
127.10695779989177,37.288449605419395,0
127.10696019989187,37.288448805421886,0
127.10696309988566,37.28844780542021,0
127.10696539989308,37.28844730542281,0
127.10696789988907,37.288446605425285,0
127.1069705998829,37.28844580542333,0
127.10697349988558,37.28844490542612,0
127.10697649989021,37.28844380542433,0
127.10697929989294,37.28844300542693,0
127.10698189988871,37.288442205420125,0
127.10698419989232,37.288441305422005,0
127.10698649989203,37.28844060542392,0
127.10698859988455,37.28843990542546,0
127.10699149988713,37.288439005418795,0
127.10699369988866,37.288438305425004,0
127.10699739989138,37.288437105423256,0
127.10699989989051,37.28843620542495,0
127.10700229989006,37.28843540541756,0
127.10700489988308,37.288434705423775,0
127.10700699988853,37.28843390542064,0
127.10700949988573,37.28843310541765,0
127.10701169988894,37.28843230541897,0
127.10701429989305,37.288431605425174,0
127.10701659988293,37.288430805421754,0
127.10701879989357,37.28843020542321,0
127.1070212998922,37.28842930542443,0
127.10702349989144,37.2884287054256,0
127.1070256998926,37.28842800542219,0
127.10702819989113,37.28842710542327,0
127.10703049989205,37.28842630541977,0
127.10703269989114,37.288425705420764,0
127.10703529988558,37.28842490542175,0
127.10703819988308,37.28842420542301,0
127.10704119989157,37.28842340542433,0
127.10704409988895,37.28842270542543,0
127.10704699988828,37.28842190542191,0
127.10704949988467,37.28842110541806,0
127.10705239988562,37.288420205418866,0
127.10705459988435,37.28841960541945,0
127.1070572998874,37.288418805424634,0
127.10706099988462,37.28841780542095,0
127.10706329988295,37.28841710542133,0
127.10706589988635,37.28841640541734,0
127.10706869988721,37.288415605417775,0
127.10707149988968,37.28841470542259,0
127.10707449988983,37.28841370542279,0
127.107077599886,37.28841280542295,0
127.107080699884,37.28841180541848,0
127.1070835998878,37.28841070541838,0
127.10708649989151,37.288409605418224,0
127.10708929988422,37.28840860541788,0
127.10709219988782,37.28840750541756,0
127.10709489989006,37.28840670542188,0
127.10709749988506,37.28840580541693,0
127.10710149989119,37.2884045054209,0
127.10710399988996,37.288403505415765,0
127.10710659989046,37.28840290542443,0
127.10710909988369,37.288402205423836,0
127.10711149989208,37.28840140542334,0
127.10711409988328,37.28840070541811,0
127.1071166998873,37.28839990541744,0
127.10711939988744,37.28839920541674,0
127.10712199989135,37.28839840541595,0
127.10712469989302,37.28839760541956,0
127.10712729988553,37.28839680541848,0
127.10712999988365,37.28839620542206,0
127.10713259988573,37.28839550541658,0
127.10713509989142,37.28839470542006,0
127.10713779988338,37.288393805418636,0
127.1071401998928,37.28839290542201,0
127.10714289989244,37.28839220542074,0
127.10714529988891,37.288391405419375,0
127.10714799989009,37.288390605422435,0
127.107150499886,37.28838970542084,0
127.1071530998911,37.288388805414804,0
127.10715559988667,37.28838790542211,0
127.10715809989374,37.28838700542053,0
127.10716059989277,37.28838590541862,0
127.10716319988614,37.288385005421176,0
127.10716579988757,37.28838430541495,0
127.10716839989036,37.288383505422125,0
127.10717099988379,37.28838260541549,0
127.10717359988638,37.288381805422546,0
127.10717619988917,37.28838100542053,0
127.10717879989349,37.28838010542292,0
127.10718139988488,37.28837930542061,0
127.1071839998891,37.28837840542287,0
127.10718669989119,37.288377505420485,0
127.10718919988625,37.288376605418044,0
127.10719179989026,37.28837570542013,0
127.1071943998847,37.288374705417425,0
127.10719709988476,37.288373905419334,0
127.10719969988709,37.2883731054168,0
127.10720229988932,37.2883723054142,0
127.1072060998865,37.288370905419015,0
127.10720859989245,37.28837000541634,0
127.1072111998847,37.2883691054178,0
127.10721359989101,37.28836830541518,0
127.10721619988317,37.28836740541655,0
127.10721869988886,37.28836650541365,0
127.10722129989217,37.28836560541506,0
127.10722379988474,37.28836480541643,0
127.10722649988564,37.288363905422095,0
127.10722899988794,37.288363205419074,0
127.10723159989104,37.28836230542028,0
127.1072340998865,37.2883613054213,0
127.10723669988808,37.28836050541792,0
127.10723929989096,37.28835960541893,0
127.1072430998854,37.288358305418086,0
127.10724569989134,37.28835720541884,0
127.10724829989404,37.28835630541965,0
127.10725089988395,37.28835550541575,0
127.1072536998935,37.288354605416316,0
127.10725649988998,37.28835380542119,0
127.10725879989096,37.28835270541744,0
127.10726149989131,37.288351805413285,0
127.10726409988382,37.288350805418,0
127.10726669988468,37.28835000541393,0
127.1072691998889,37.28834910541894,0
127.10727169988355,37.28834810541916,0
127.10727449989113,37.28834730541475,0
127.10727709989321,37.288346405414906,0
127.10727959988456,37.28834560541506,0
127.10728219988648,37.28834470541509,0
127.10728479989142,37.28834360541496,0
127.1072873998932,37.28834270541488,0
127.10728979988805,37.28834180541493,0
127.10729229989045,37.28834100541499,0
127.10729509988606,37.28834020541891,0
127.10729769988463,37.288339505418705,0
127.10730039989072,37.28833890541849,0
127.10730319988343,37.288338305413326,0
127.10730589988648,37.28833790541308,0
127.10730869988714,37.28833750541709,0
127.10731149988804,37.28833710541201,0
127.10731419989078,37.2883367054206,0
127.1073185998887,37.28833640541711,0
127.10732129988727,37.28833630541217,0
127.10732419989392,37.28833610542039,0
127.10732699988878,37.28833610541518,0
127.10732979988347,37.28833610541891,0
127.1073325998881,37.28833620541831,0
127.1073353998914,37.2883364054132,0
127.1073395998931,37.288336905419015,0
127.10734239989068,37.28833750541396,0
127.10734519988961,37.2883380054133,0
127.10734779989139,37.2883386054176,0
127.10735039989194,37.2883393054174,0
127.10735289989321,37.28834010541745,0
127.10735539989173,37.28834110541756,0
127.10735779989398,37.28834200541781,0
127.10736009989418,37.288343205418414,0
127.10736239988313,37.28834440541882,0
127.10736449988522,37.28834580541096,0
127.10736679989402,37.28834720541177,0
127.107368999884,37.28834850541235,0
127.10737129989302,37.28834990541306,0
127.10737349989292,37.28835130541831,0
127.10737549988488,37.2883528054104,0
127.107377499888,37.288354305411666,0
127.10737929989396,37.28835590541799,0
127.10738119988548,37.288357605414866,0
127.10738289989261,37.288359305412435,0
127.10738449988784,37.288361205414695,0
127.10738609988466,37.28836300541237,0
127.10738759989358,37.28836490541055,0
127.10738889988409,37.28836680541788,0
127.1073901998834,37.2883689054165,0
127.10739139988506,37.28837100541087,0
127.10739259988777,37.288373005418684,0
127.10739359989239,37.28837520541815,0
127.10739469988498,37.288377305417086,0
127.10739569989111,37.28837940541198,0
127.1073965998881,37.28838150541145,0
127.10739769989215,37.28838360541055,0
127.10739869988545,37.2883858054188,0
127.10739979989108,37.288387805413315,0
127.10740069988826,37.288389905412764,0
127.10740249989067,37.28839270541062,0
127.10740349988973,37.28839450541861,0
127.10740479988446,37.288397005417316,0
127.1074057998853,37.28839870541171,0
127.10740659989023,37.28840040541566,0
127.10740769988624,37.28840230541437,0
127.10740859988651,37.288404205413656,0
127.1074094998868,37.28840610541292,0
127.10741079989008,37.28840800541121,0
127.10741189988482,37.288410005414455,0
127.1074129998882,37.28841220541798,0
127.10741419989112,37.28841430541215,0
127.10741529988485,37.28841640541092,0
127.10741639988716,37.288418705409974,0
127.10741749989202,37.288420805417914,0
127.10741869988391,37.288422905411856,0
127.10741989988567,37.28842510541054,0
127.10742099988951,37.28842730541399,0
127.10742209989336,37.28842950541745,0
127.10742319988752,37.28843160541615,0
127.10742429989442,37.288433605410454,0
127.10742529989058,37.288435705413946,0
127.10742639988338,37.28843790541719,0
127.10742749988906,37.28844000541603,0
127.10742859988487,37.28844200541012,0
127.10742959989258,37.28844410541375,0
127.10743069988833,37.28844610541684,0
127.10743169988505,37.288448205411264,0
127.10743269989435,37.28845020541031,0
127.10743359989432,37.288452205413975,0
127.10743469989175,37.288454105412455,0
127.10743549988533,37.288455905411624,0
127.1074366998881,37.28845810541014,0
127.10743769988615,37.28846010541798,0
127.10743869988588,37.28846200541224,0
127.10743979989338,37.28846400541543,0
127.1074408998899,37.28846600540941,0
127.10744209989276,37.28846820541688,0
127.10744319988675,37.28847040541098,0
127.1074442998832,37.28847240541395,0
127.10744519988782,37.28847410541285,0
127.10744649989043,37.28847620541091,0
127.1074477998929,37.288478305417954,0
127.10744869988636,37.288480005416666,0
127.10744949989184,37.28848180541591,0
127.10745059988888,37.28848380540982,0
127.1074519998871,37.288486105412126,0
127.1074530998854,37.288488005410464,0
127.10745409988564,37.288489905413606,0
127.10745499988928,37.288491705417,0
127.10745579988514,37.28849340541147,0
127.10745679988813,37.28849510541448,0
127.10745789988673,37.28849700541278,0
127.10745919988746,37.28849930541083,0
127.10746039988896,37.288501705409246,0
127.10746149988375,37.2885039054122,0
127.10746249988699,37.28850560541515,0
127.10746379989062,37.28850770541304,0
127.10746489989305,37.288510205411804,0
127.10746579989195,37.288512405415375,0
127.1074667998931,37.288514305409414,0
127.10746759988922,37.28851600541282,0
127.10746859988645,37.28851820541154,0
127.10746959988745,37.28852010541456,0
127.10747039989384,37.28852190541368,0
127.10747119989011,37.28852360541706,0
127.10747209989076,37.288525705416035,0
127.10747299988529,37.28852740541456,0
127.10747389988857,37.288529305413384,0
127.10747469989252,37.28853130541261,0
127.10747559988324,37.288533305415804,0
127.10747649988811,37.288535105410055,0
127.10747749988697,37.28853720541314,0
127.10747849989346,37.288539605412076,0
127.10747929989009,37.288541305415414,0
127.10748009988701,37.288543005409736,0
127.10748109988465,37.28854520541736,0
127.10748199988977,37.28854700541157,0
127.10748279988543,37.288548805410436,0
127.10748379989334,37.28855110541378,0
127.10748469988452,37.288553105416916,0
127.10748549989158,37.28855490541596,0
127.10748629988618,37.28855680541035,0
127.10748749989195,37.288559005408416,0
127.10748869989018,37.288560905410606,0
127.10748999989403,37.288563105412784,0
127.10749139989369,37.28856550541023,0
127.10749299988943,37.28856790541595,0
127.1074944998861,37.288570405413076,0
127.10749609989217,37.2885729054145,0
127.10749749989223,37.28857530541187,0
127.1074989998917,37.28857760540881,0
127.10749999989035,37.2885798054163,0
127.10750089988494,37.28858160541019,0
127.1075017998896,37.28858350540883,0
127.10750289988414,37.288585905411544,0
127.10750399989007,37.288588305414436,0
127.10750499988424,37.28859090541311,0
127.10750579989211,37.288592705412015,0
127.10750659988625,37.28859470541086,0
127.10750729989233,37.28859680541029,0
127.10750799988581,37.28859900541413,0
127.10750859989261,37.28860120541398,0
127.10750909989005,37.28860340540952,0
127.10750979989014,37.28860690540996,0
127.10751019988942,37.28860910541036,0
127.10751039989232,37.28861130541148,0
127.10751039988897,37.28861340540858,0
127.10751039988784,37.28861530541459,0
127.10751029988866,37.28861720541644,0
127.10751009989136,37.28861910541416,0
127.10750989989411,37.28862100541188,0
127.10750949988669,37.28862310541026,0
127.10750899988334,37.288625005413394,0
127.10750839989079,37.288627105412665,0
127.10750769988988,37.288629105412056,0
127.10750709988592,37.28863120541114,0
127.10750629988665,37.2886332054154,0
127.10750519989288,37.28863520541621,0
127.1075039998896,37.28863720541269,0
127.10750279988744,37.2886391054136,0
127.10750149988574,37.28864110541491,0
127.10750009988587,37.288643105412056,0
127.1074984998906,37.28864500541433,0
127.10749679988838,37.28864670541213,0
127.1074947998927,37.2886483054109,0
127.10749269988614,37.288650005409856,0
127.10749059989331,37.28865150540884,0
127.10748839989081,37.28865300541245,0
127.10748589988485,37.28865430541223,0
127.1074834998908,37.28865540541621,0
127.10748109988424,37.28865660541549,0
127.10747869989031,37.288657705410344,0
127.1074762998873,37.28865860541386,0
127.10747409988338,37.28865930541654,0
127.1074719998878,37.28866010541008,0
127.10746899989265,37.288661205415536,0
127.10746689988567,37.28866200540881,0
127.10746409988685,37.2886631054135,0
127.10746119988987,37.28866420541391,0
127.10745829989278,37.28866530541427,0
127.10745419988899,37.28866680540918,0
127.10745199989321,37.28866770541173,0
127.10744969988802,37.288668605409875,0
127.10744719988747,37.28866940541304,0
127.10744469988563,37.28867030541169,0
127.10744219988499,37.28867110541474,0
127.1074397998838,37.28867180541738,0
127.10743739989272,37.2886726054157,0
127.10743509988987,37.288673305413425,0
127.10743279988696,37.28867400541112,0
127.107430599892,37.288674805417706,0
127.10742849988553,37.28867550541472,0
127.10742549989064,37.28867650541447,0
127.10742269989343,37.28867740541804,0
127.10742039988907,37.28867820541102,0
127.10741789988789,37.28867900541355,0
127.10741439988878,37.2886801054143,0
127.1074113998835,37.28868100541796,0
127.1074089998833,37.288681605415384,0
127.10740639988371,37.28868240541344,0
127.10740359988887,37.28868310541641,0
127.10740079989269,37.28868390541488,0
127.107398199893,37.288684705412734,0
127.10739599988888,37.28868530541836,0
127.10739389989182,37.288686105410484,0
127.10739139989141,37.28868680541687,0
127.10738869989336,37.288687605410274,0
127.10738639988944,37.28868830541604,0
127.1073836998897,37.288689205413874,0
127.10738019989252,37.28869010541349,0
127.10737749988424,37.28869080541091,0
127.10737519989293,37.28869140541207,0
127.1073729998884,37.28869200541726,0
127.10737059988473,37.288692805414016,0

            </coordinates>
        </LineString>
    </Placemark>
</Document>
</kml>
