<?xml version="1.0" encoding="UTF-8"?>
<kml xmlns="http://www.opengis.net/kml/2.2">
<Document>
    <name>Waypoints</name>
    <Style id="yellowLineGreenPoly">
        <LineStyle>
            <color>7f00ffff</color>
            <width>4</width>
        </LineStyle>
        <PolyStyle>
            <color>7f00ff00</color>
        </PolyStyle>
    </Style>
    <Placemark>
        <name>Path</name>
        <styleUrl>#yellowLineGreenPoly</styleUrl>
        <LineString>
            <coordinates>
127.10769119988802,37.288932305409865,0
127.10768849989434,37.28893320540566,0
127.10768549989426,37.28893400541167,0
127.10768169989215,37.2889350054125,0
127.10767909988661,37.288935805407334,0
127.10767669989134,37.28893640541018,0
127.10767439988355,37.28893700540782,0
127.10767169989134,37.2889377054121,0
127.10766949989322,37.288938305413836,0
127.10766709988773,37.288938805411746,0
127.10766369989203,37.288939705405674,0
127.10766149989381,37.288940305407245,0
127.10765889988765,37.28894110541063,0
127.10765629988363,37.28894170541383,0
127.10765349989164,37.28894250540923,0
127.10765049989206,37.28894320540975,0
127.10764739989268,37.288944005410734,0
127.107644399893,37.2889447054111,0
127.10764169989021,37.28894530540994,0
127.10763919988462,37.28894590540781,0
127.107636999887,37.28894640541335,0
127.1076347998896,37.28894690540986,0
127.10763249989239,37.288947505406846,0
127.10762979988823,37.28894820540996,0
127.10762729989372,37.288948805407756,0
127.10762409988392,37.288949605412874,0
127.10762159988835,37.28895030540609,0
127.10761889988495,37.2889509054134,0
127.10761609989325,37.28895160541233,0
127.10761319988956,37.28895250540706,0
127.10761019988921,37.28895320540654,0
127.10760729988733,37.28895390541002,0
127.10760439988445,37.28895470540898,0
127.10760149989378,37.288955405412494,0
127.10759869988945,37.28895620540637,0
127.1075958998836,37.28895710541376,0
127.1075930998915,37.288957805412124,0
127.10759039988663,37.28895850541433,0
127.10758759989336,37.28895930540812,0
127.10758489988842,37.288960005410196,0
127.10758229989337,37.28896070540748,0
127.10757959988828,37.28896140540943,0
127.10757699989297,37.28896210541559,0
127.107574299888,37.28896280540843,0
127.10757169989257,37.28896350541447,0
127.10756889988878,37.28896420541208,0
127.1075662998935,37.28896490540899,0
127.10756229988846,37.28896610541582,0
127.10755969989305,37.28896680541259,0
127.10755699988516,37.28896770541413,0
127.10755439988831,37.28896850541534,0
127.10755169989179,37.28896940540793,0
127.1075490998836,37.28897020540884,0
127.10754519988434,37.28897170541503,0
127.10754239989127,37.28897240541217,0
127.10753979989418,37.28897320541304,0
127.10753699988972,37.28897390540989,0
127.10753439989358,37.288974605415085,0
127.10753169988652,37.288975405411456,0
127.10752889989432,37.28897600541272,0
127.10752619988959,37.28897660540888,0
127.10752349989336,37.288977405414265,0
127.10752089988462,37.288978205414544,0
127.10751819988965,37.28897890541523,0
127.10751559989205,37.288979705415564,0
127.10751299988448,37.2889804054111,0
127.10751029988799,37.28898120541618,0
127.10750769989167,37.288981905411774,0
127.10750509989386,37.288982705411875,0
127.10750249988592,37.288983405416175,0
127.10749989988939,37.2889841054116,0
127.10749719989403,37.28898480541181,0
127.10749469988335,37.28898560541566,0
127.10749199988788,37.28898630541573,0
127.10748919989385,37.288987005411585,0
127.10748639988962,37.28898760541165,0
127.10748369989406,37.28898830541153,0
127.10748109988313,37.28898920541547,0
127.10747839988746,37.288989905415235,0
127.10747569989051,37.288990705410484,0
127.1074730998921,37.28899150540987,0
127.10747039988357,37.28899230541382,0
127.10746779988504,37.288993105413084,0
127.1074651998877,37.28899380541672,0
127.1074624998905,37.288994605411666,0
127.10745989989182,37.28899540541075,0
127.10745739989167,37.288996205413966,0
127.10745479988431,37.28899680541264,0
127.10745239988405,37.288997505415395,0
127.10744979988665,37.28899820540968,0
127.10744719988894,37.28899890541293,0
127.10744469989001,37.28899960541132,0
127.10744209989221,37.28900030541443,0
127.10743929988718,37.28900090541335,0
127.10743669988805,37.28900170541191,0
127.10743399989279,37.28900230541509,0
127.10743139989361,37.28900310541352,0
127.1074287998843,37.28900380541618,0
127.10742619988503,37.28900460541449,0
127.1074234998868,37.28900540541753,0
127.10742099988747,37.2890061054154,0
127.10741839988799,37.28900690541354,0
127.10741579988844,37.28900770541161,0
127.10741319989013,37.2890084054141,0
127.10741059989176,37.28900910541651,0
127.10740799989213,37.28900990541442,0
127.1074052998838,37.28901060541229,0
127.10740269988685,37.289011205409984,0
127.1074001998869,37.2890119054164,0
127.10739789988583,37.28901250541772,0
127.10739489988977,37.28901340541189,0
127.10739239988972,37.289014105418154,0
127.10738959989222,37.289014905416145,0
127.10738719988952,37.289015705413085,0
127.10738419989305,37.28901660541599,0
127.1073817998931,37.289017205412726,0
127.10737929988308,37.28901780541395,0
127.10737669989408,37.28901860541134,0
127.1073740998838,37.28901930541275,0
127.10737139988589,37.289020005419026,0
127.10736869988818,37.28902070541623,0
127.10736609988906,37.28902140541764,0
127.10736329989243,37.289022105419455,0
127.1073605998849,37.28902270541173,0
127.10735799988404,37.289023505417525,0
127.10735539988761,37.289024005418604,0
127.10735269989118,37.28902460541088,0
127.1073499998833,37.28902520541192,0
127.10734739988519,37.28902580541737,0
127.1073446998884,37.28902640541846,0
127.1073419998903,37.28902710541505,0
127.10733939989065,37.28902780541586,0
127.10733679989264,37.28902840541206,0
127.10733409989412,37.28902910541747,0
127.10733169989346,37.289029705413164,0
127.10732919989229,37.28903040541805,0
127.10732689989015,37.28903100541794,0
127.10732479988404,37.28903170541296,0
127.10732139989135,37.289032605415,0
127.10731859989227,37.28903340542027,0
127.10731589989365,37.289034105416235,0
127.10731209989306,37.2890351054141,0
127.10730969989042,37.28903580541389,0
127.10730729988916,37.289036405418074,0
127.10730499988665,37.28903700541754,0
127.10730139988638,37.28903780541461,0
127.10729869988887,37.28903840541464,0
127.10729649988659,37.289038905413705,0
127.10729359988842,37.28903970541405,0
127.10728909988644,37.28904060541208,0
127.10728689989361,37.28904120541571,0
127.10728389988685,37.28904190541573,0
127.10728109988875,37.289042605415545,0
127.10727889988452,37.28904320541884,0
127.1072766998918,37.28904380541325,0
127.10727449988899,37.28904430542094,0
127.10727179988788,37.28904510542042,0
127.10726949988656,37.28904560541463,0
127.10726729989346,37.289046205417876,0
127.10726469989409,37.28904680542148,0
127.10726249988981,37.28904740541544,0
127.1072578998916,37.28904880541281,0
127.10725529989033,37.28904950542074,0
127.10725269988926,37.2890502054196,0
127.10725039988594,37.289050805417986,0
127.10724709989192,37.28905160541766,0
127.1072445998878,37.289052405416264,0
127.10724239988302,37.28905300541886,0
127.10723809988671,37.289054005419416,0
127.10723469989209,37.289054905418894,0
127.10723139988315,37.28905590541803,0
127.10722799988658,37.28905690542186,0
127.10722489988629,37.289057905420776,0
127.10722229988461,37.28905860541894,0
127.10721939988325,37.28905950542195,0
127.10721709989073,37.289060105419864,0
127.10721459988758,37.28906080542226,0
127.10721239989384,37.28906140541546,0
127.10720939989359,37.289062305413815,0
127.10720699989075,37.289062905415925,0
127.10720429988837,37.28906370541383,0
127.1072012998895,37.28906450541643,0
127.10719819989012,37.28906540541909,0
127.10719489988368,37.2890662054171,0
127.10719179988415,37.289067105419576,0
127.10718889989337,37.28906800542201,0
127.107186099892,37.289068805415056,0
127.10718349988784,37.289069605416906,0
127.10718089988363,37.28907040541869,0
127.1071784998882,37.28907120542047,0
127.10717599988439,37.28907190542204,0
127.10717349989197,37.28907260541473,0
127.10717099988806,37.28907330541619,0
127.10716859989401,37.28907400542223,0
127.10716599988974,37.28907480541467,0
127.10716349988567,37.28907550541597,0
127.10716089989235,37.289076305417495,0
127.10715819989068,37.289077005418775,0
127.10715549988727,37.28907780541555,0
127.10715139988432,37.289078905417306,0
127.10714869989368,37.28907960541856,0
127.10714589989125,37.28908040541964,0
127.10714309989059,37.28908110541611,0
127.10714029989153,37.28908170541698,0
127.10713609988922,37.28908280542274,0
127.10713349988409,37.28908360542346,0
127.10713069988506,37.28908420541509,0
127.10712809989111,37.28908500541586,0
127.10712539988695,37.28908580542093,0
127.10712279989286,37.28908660542159,0
127.10712019988752,37.28908740542201,0
127.10711759989333,37.28908820542255,0
127.10711499988977,37.2890889054183,0
127.1071122998853,37.289089705423066,0
127.10710969988327,37.28909030542317,0
127.10710699989025,37.28909110541898,0
127.10710429988757,37.28909180541901,0
127.10710149988782,37.28909240541894,0
127.1070973998927,37.28909360542351,0
127.10709489988935,37.28909420541878,0
127.10709209988752,37.28909490542303,0
127.10708929988758,37.28909550542266,0
127.10708519988471,37.28909650541753,0
127.10708249989291,37.28909720541723,0
127.10707859988557,37.289098305416445,0
127.10707599989234,37.28909900542051,0
127.1070734998867,37.289099705419865,0
127.10706969988729,37.289100905419005,0
127.10706699988394,37.28910160541816,0
127.10706429989177,37.28910230541744,0
127.10706169988705,37.289103005421005,0
127.10705909989352,37.2891037054247,0
127.1070564998889,37.28910440541914,0
127.10705249989316,37.28910550542211,0
127.10704989989016,37.28910610542088,0
127.10704729988517,37.28910680542412,0
127.10704349988876,37.28910780542233,0
127.10704089988369,37.28910850542543,0
127.10703829989,37.28910920541964,0
127.1070356998848,37.28910990542263,0
127.10703319988976,37.289110605421286,0
127.10703059988447,37.28911130542416,0
127.10702809989134,37.28911190541815,0
127.10702559988466,37.28911260542549,0
127.10702299989256,37.289113205423824,0
127.10702049988804,37.289113805417486,0
127.10701799989246,37.28911450542482,0
127.10701539988897,37.28911510542281,0
127.1070125998878,37.289115705420585,0
127.10700989988908,37.28911610542282,0
127.10700729989117,37.289116405425034,0
127.10700459988523,37.28911660541788,0
127.10700199988909,37.28911680542444,0
127.10699929988503,37.289116905421665,0
127.10699659989221,37.289117005418966,0
127.10699399988474,37.28911720542518,0
127.10699149988957,37.289117305422565,0
127.10698889988414,37.28911740542412,0
127.10698629989213,37.28911740542126,0
127.10698359988984,37.28911740542257,0
127.10698089988965,37.28911730541929,0
127.10697819989134,37.2891171054204,0
127.10697559989175,37.289116905426084,0
127.10697299988509,37.28911650542245,0
127.10697059988738,37.289116105419154,0
127.10696819988432,37.289115405420056,0
127.10696589989125,37.28911470542569,0
127.10696359988906,37.289113905426575,0
127.10696129988901,37.28911300542286,0
127.10695899988906,37.28911210541913,0
127.10695669989288,37.28911100542429,0
127.10695419988814,37.28910990541998,0
127.10695169988321,37.28910880542462,0
127.1069479998843,37.28910700542258,0
127.10694549988365,37.28910570542703,0
127.1069419998888,37.28910360542047,0
127.10693969988804,37.28910220542054,0
127.10693749989012,37.28910060542514,0
127.1069353998913,37.28909900542535,0
127.10693349989225,37.289097305421265,0
127.1069315998839,37.28909550542143,0
127.1069297998856,37.28909370542641,0
127.10692789988683,37.28909200542224,0
127.10692619988762,37.28909020542281,0
127.10692449988848,37.28908840542334,0
127.10692279988943,37.28908660542387,0
127.10692119988936,37.28908480542002,0
127.10691979988889,37.289082905420926,0
127.10691839989039,37.28908090542628,0
127.10691719988975,37.289078905422926,0
127.10691589989028,37.28907690542391,0
127.10691459989083,37.28907490542488,0
127.10691339989232,37.28907280542597,0
127.10691229989057,37.28907080542722,0
127.10691109989243,37.28906870541929,0
127.10690999989275,37.289066605425,0
127.10690879988321,37.28906450542586,0
127.10690769989296,37.28906250542727,0
127.10690589988918,37.28905940542647,0
127.10690419988438,37.2890563054213,0
127.10690309988506,37.289054205426964,0
127.106901999886,37.2890521054236,0
127.10690089988486,37.28905010542477,0
127.10689969988707,37.289048005425734,0
127.10689849988938,37.289045905426676,0
127.1068973998884,37.28904390542781,0
127.10689629988968,37.289041805424404,0
127.10689519989099,37.28903970542098,0
127.1068939998935,37.28903760542188,0
127.10689289989281,37.28903560542299,0
127.10689179988302,37.289033505419354,0
127.10689069988432,37.289031405424915,0
127.10688959988596,37.28902930542146,0
127.10688849988543,37.289027305422515,0
127.10688739988693,37.28902520542805,0
127.10688639988756,37.28902310542022,0
127.10688529988718,37.28902110542126,0
127.10688419988888,37.28901900542676,0
127.10688319988947,37.289016905427935,0
127.10688209989142,37.2890148054244,0
127.10688099989135,37.28901280542541,0
127.10687989989127,37.289010805426386,0
127.10687869989266,37.28900880542268,0
127.10687749989395,37.28900680542798,0
127.10687639988498,37.28900470542421,0
127.10687519988659,37.28900270542047,0
127.10687399989027,37.2890006054212,0
127.10687279989172,37.28899860542645,0
127.10687169988299,37.288996505422645,0
127.10687069988418,37.288994405423715,0
127.10686979988415,37.28899230542048,0
127.10686899988478,37.2889901054264,0
127.10686839988291,37.288987905423674,0
127.1068675998838,37.28898570542057,0
127.10686709989184,37.28898350542273,0
127.10686669988935,37.28898120542486,0
127.10686639988565,37.288978905422695,0
127.1068660998933,37.2889766054207,0
127.1068658998881,37.28897430542321,0
127.10686579989076,37.28897210542613,0
127.10686589989095,37.288969905420444,0
127.10686609988932,37.28896770542844,0
127.10686669989373,37.28896550542839,0
127.10686739989261,37.28896350542407,0
127.10686819989192,37.28896140542894,0
127.10686909988793,37.288959405425,0
127.10687059988734,37.28895630542617,0
127.10687149988523,37.288954205426684,0
127.1068725998873,37.2889523054278,0
127.10687379989312,37.28895070542035,0
127.10687499988944,37.28894900542619,0
127.10687629989363,37.2889474054234,0
127.10687759988653,37.288945805420425,0
127.10687969988679,37.28894330542311,0
127.1068810998915,37.28894160542041,0
127.1068825998853,37.288939805426665,0
127.10688419988705,37.288938105424286,0
127.10688589988716,37.28893640542656,0
127.1068876998859,37.28893470542448,0
127.10689059988574,37.2889322054195,0
127.10689259989049,37.288930605422394,0
127.10689459988393,37.28892900542507,0
127.10689759989098,37.28892660542028,0
127.10689989989109,37.288925005428034,0
127.10690209988876,37.28892360542215,0
127.10690439989379,37.288922305425594,0
127.10690679989344,37.2889212054247,0
127.106909099883,37.288920105427934,0
127.10691159989241,37.28891900542277,0
127.10691399988961,37.28891800542627,0
127.10691639988701,37.28891700542071,0
127.10691889989404,37.28891600541993,0
127.1069213998895,37.28891500542792,0
127.10692519988591,37.28891360542423,0
127.10692769989055,37.2889127054278,0
127.10693019988601,37.288911705426585,0
127.10693399988399,37.28891020542709,0
127.10693659988709,37.28890930542608,0
127.10693909989365,37.28890830542485,0
127.10694169988352,37.2889075054191,0
127.10694419988779,37.28890660542229,0
127.10694679989257,37.28890560542552,0
127.10694929988759,37.28890460542389,0
127.10695189988824,37.28890380542709,0
127.10695439989252,37.28890290542106,0
127.1069569998839,37.288902005419416,0
127.10695959988436,37.28890120542242,0
127.10696209988828,37.28890030542524,0
127.10696449989366,37.288899405423386,0
127.10696709989396,37.28889860542623,0
127.10696969988322,37.28889780541982,0
127.106972199885,37.288897005417944,0
127.10697479988521,37.28889620542061,0
127.1069773998853,37.28889540542324,0
127.10698009989324,37.288894705426095,0
127.1069827998919,37.288893905424175,0
127.10698539989184,37.2888931054266,0
127.106987999892,37.28889230541997,0
127.10699049989341,37.288891505417695,0
127.10699299988538,37.28889060541965,0
127.10699559988694,37.28888970542633,0
127.10699819988689,37.28888890541946,0
127.10700079989391,37.28888830542179,0
127.10700359989023,37.288888105424356,0
127.10700629988438,37.288888105422366,0
127.10700899988767,37.28888820542504,0
127.10701169988538,37.28888860542324,0
127.10701449989286,37.28888900542614,0
127.10701719988882,37.28888950541976,0
127.10701989989202,37.28889020542258,0
127.10702249989313,37.28889110542085,0
127.1070249998918,37.288892205423586,0
127.1070273998942,37.28889320541718,0
127.10702979988315,37.2888943054241,0
127.1070319998886,37.28889530541748,0
127.10703409989141,37.2888965054244,0
127.10703599988821,37.288897605417425,0
127.10703769988574,37.288898805423884,0
127.1070399998861,37.288900605422164,0
127.10704189989043,37.28890250542479,0
127.10704409988682,37.288905205423475,0
127.10704519988609,37.288906805420744,0
127.107046199883,37.288908605422534,0
127.1070471998895,37.28891050542004,0
127.10704819989405,37.288912505422076,0
127.1070492998861,37.28891450541945,0
127.10705039988943,37.288916505417006,0
127.10705129988412,37.288918505423304,0
127.10705229989092,37.28892040542076,0
127.10705319988774,37.28892230542252,0
127.10705399988788,37.28892410542419,0
127.10705489988673,37.28892590542137,0
127.10705579988566,37.28892770541855,0
127.10705679989245,37.288929605425004,0
127.10705769988769,37.28893160542225,0
127.10705869989282,37.2889336054242,0
127.10705969988689,37.28893560541696,0
127.10706079988687,37.28893780542351,0
127.1070616998899,37.288940005420976,0
127.10706279989196,37.288942105422976,0
127.10706379988426,37.28894420542024,0
127.10706489988475,37.28894640541776,0
127.10706589988818,37.2889485054242,0
127.10706709988922,37.288950605421675,0
127.10706809989303,37.288952705419085,0
127.10706899988695,37.28895480542081,0
127.10707009989135,37.288956805418195,0
127.10707099988532,37.28895890541988,0
127.10707199988937,37.28896100541728,0
127.1070731998925,37.28896300541916,0
127.10707429988581,37.28896500541633,0
127.10707529989175,37.28896700541816,0
127.10707619988969,37.28896890541975,0
127.10707729988854,37.28897060542129,0
127.10707819989025,37.28897230542278,0
127.10707909989024,37.288974105419804,0
127.10708009988879,37.28897590542134,0
127.10708109988572,37.2889778054184,0
127.10708209989369,37.288979705424644,0
127.10708329988435,37.288981805421784,0
127.10708449988992,37.28898370541902,0
127.10708589988928,37.28898580541635,0
127.10708739989093,37.28898770541808,0
127.10708929989256,37.28898930542421,0
127.10709129988743,37.28899060542102,0
127.10709329989359,37.288991905417966,0
127.10709549989122,37.2889929054191,0
127.10709769988485,37.288993505419846,0
127.10710189989337,37.28899430542128,0
127.1071041998835,37.28899440542154,0
127.10710659988365,37.28899450541742,0
127.10710899989326,37.28899470541797,0
127.10711139989321,37.28899480542275,0
127.10711379989341,37.28899490541849,0
127.10711619988568,37.28899480542293,0
127.10711869988639,37.288994805418504,0
127.10712109988827,37.28899480541856,0
127.10712349989183,37.288994705423036,0
127.10712669988851,37.28899440541815,0
127.10712939989332,37.288994005422296,0
127.10713179988325,37.28899340542154,0
127.10713389989202,37.28899260541641,0
127.10713619988657,37.288991805420025,0
127.10713879989012,37.2889909054236,0
127.10714219988827,37.288989705422196,0
127.10714449989418,37.2889889054168,0
127.10714689988725,37.28898810541564,0
127.10715049988413,37.28898680541836,0
127.10715349988543,37.28898570542135,0
127.10715559989195,37.288985005420365,0
127.1071577998859,37.288984305414616,0
127.1071609998843,37.2889832054173,0
127.10716309989067,37.28898250541619,0
127.10716609989163,37.288981405418845,0
127.1071691998913,37.28898030541685,0
127.10717139988662,37.2889795054153,0
127.10717369988984,37.28897880542287,0
127.10717609989365,37.288978005421285,0
127.1071784998879,37.288977105414915,0
127.10718089989136,37.28897630542223,0
127.10718329988373,37.288975505420304,0
127.10718589988794,37.28897450541828,0
127.10718839989185,37.28897360541631,0
127.10719119988987,37.28897280541409,0
127.10719379989368,37.28897180542087,0
127.1071964998931,37.28897100541412,0
127.10719929989254,37.28897010541615,0
127.10720199988363,37.288969105418,0
127.10720479988296,37.2889682054199,0
127.10720739988494,37.28896730542192,0
127.10720999988702,37.28896640541488,0
127.10721249988859,37.28896560541694,0
127.10721479989282,37.288964805419134,0
127.10721699988544,37.28896410542127,0
127.10722089988882,37.28896270542159,0
127.10722389988845,37.28896160541373,0
127.1072269998863,37.28896050541918,0
127.10723099988957,37.28895900541901,0
127.10723399989037,37.288957805415336,0
127.10723709988969,37.28895660541597,0
127.10723939989342,37.28895580541768,0
127.10724159988878,37.28895490541924,0
127.10724389989413,37.28895400541632,0
127.1072459998892,37.288953205417954,0
127.10724809988416,37.288952405419565,0
127.10725139988837,37.28895070541481,0
127.10725369989005,37.288949305415805,0
127.10725559988451,37.28894800541262,0
127.107257699892,37.2889464054137,0
127.10725949988759,37.2889451054151,0
127.1072628998926,37.2889425054183,0
127.10726479989134,37.28894090541934,0
127.10726669989313,37.28893910542026,0
127.10726859988524,37.28893720541642,0
127.10727069988357,37.28893400541596,0
127.1072717998914,37.28893180541762,0
127.10727259989046,37.28892970541959,0
127.10727329988647,37.28892790541283,0
127.10727419989374,37.288925905414864,0
127.10727479989407,37.28892390541265,0
127.10727529988439,37.288921905414924,0
127.107275899883,37.28892000541727,0
127.10727639989271,37.28891820541998,0
127.10727709989118,37.2889155054171,0
127.10727749988608,37.28891330541491,0
127.10727779988541,37.2889109054173,0
127.10727819988485,37.28890840541948,0
127.10727819989167,37.28890580541772,0
127.10727799989014,37.288903205416105,0
127.10727779988856,37.28890060541449,0
127.10727739988826,37.288898105417736,0
127.10727689988956,37.28889560541664,0
127.10727619988754,37.28889350541603,0
127.10727539988378,37.28889160542018,0
127.10727459988985,37.28888980542004,0
127.10727339988871,37.288887405419885,0
127.10727229988314,37.288885205415134,0
127.10727129989048,37.28888280541482,0
127.10727039988537,37.28888110541469,0
127.10726909989069,37.2888784054145,0
127.10726779989128,37.28887600541893,0
127.10726689988631,37.28887430541877,0
127.10726589989426,37.288872605414404,0
127.10726479988574,37.288870605418715,0
127.10726389989217,37.28886890541871,0
127.10726299989057,37.2888670054184,0
127.10726189989364,37.28886500541386,0
127.10726089989356,37.2888631054182,0
127.10725959988504,37.28886060541783,0
127.10725879989035,37.28885890541314,0
127.10725779989036,37.28885700541747,0
127.10725689988901,37.28885510541713,0
127.10725589989082,37.2888531054169,0
127.1072548998829,37.28885100542092,0
127.10725399989147,37.2888492054163,0
127.10725309989179,37.2888472054204,0
127.10725209988428,37.28884510541538,0
127.10725119988318,37.28884320541503,0
127.10725019989171,37.28884080541455,0
127.1072490998938,37.288838905414444,0
127.10724809989108,37.28883720541878,0
127.10724729988713,37.288835405418304,0
127.10724629988471,37.28883370541362,0
127.10724529988707,37.2888317054133,0
127.10724419989091,37.288829705417605,0
127.10724319989166,37.28882780542181,0
127.10724219988948,37.2888261054171,0
127.10724119989032,37.2888242054213,0
127.1072401998882,37.28882250541657,0
127.10723919988914,37.28882060542076,0
127.10723789989008,37.28881830542044,0
127.10723679988472,37.28881620541994,0
127.10723559989069,37.288814205419804,0
127.10723479988567,37.28881250541479,0
127.10723379988366,37.288810805419025,0
127.10723269988831,37.28880880541422,0
127.10723169988808,37.28880700541388,0
127.1072306998879,37.288805205413546,0
127.1072297998846,37.28880350541312,0
127.10722869988753,37.28880160542186,0
127.10722759989244,37.28879960541701,0
127.1072264998859,37.28879760542099,0
127.10722499988599,37.28879490542041,0
127.10722409988621,37.28879300541985,0
127.10722309988485,37.288791305414996,0
127.10722189988677,37.288788905414364,0
127.10722059988878,37.288786605413875,0
127.10721919989405,37.288784205413435,0
127.10721829989102,37.28878250542195,0
127.10721729988997,37.28878080541703,0
127.10721559988751,37.288777805420764,0
127.10721449989303,37.28877580541581,0
127.1072133998872,37.28877380541969,0
127.10721219988494,37.2887717054146,0
127.10721109988893,37.288769805414155,0
127.10720999989292,37.288767905413714,0
127.10720909989203,37.2887661054176,0
127.10720779988681,37.288763605416726,0
127.1072066998846,37.28876140542044,0
127.10720559988421,37.288759105419594,0
127.10720449988719,37.288756605418655,0
127.10720379988328,37.288754805422315,0
127.10720289988615,37.288752805417055,0
127.10720199989065,37.28875070541626,0
127.10720109988395,37.28874860541527,0
127.10719999989344,37.28874640541912,0
127.10719899989164,37.288744105422616,0
127.10719799989023,37.2887418054171,0
127.10719699988857,37.28873950542061,0
127.10719589988722,37.28873730541522,0
127.10719489988413,37.28873510541424,0
127.10719389989215,37.28873290542244,0
127.10719289988769,37.28873080541698,0
127.1071917998863,37.28872860542058,0
127.10719079989323,37.28872650541529,0
127.10718979988863,37.288724405418826,0
127.1071886998859,37.28872230541793,0
127.10718759988323,37.28872020541703,0
127.10718659989011,37.28871810542072,0
127.10718549988755,37.2887160054198,0
127.10718449988508,37.28871380541874,0
127.1071833998939,37.28871170541798,0
127.10718239988975,37.28870960542146,0
127.10718149988396,37.28870750542035,0
127.10718059989142,37.288705305414844,0
127.10717969988553,37.288703205422735,0
127.10717889989115,37.288701005421636,0
127.10717779988909,37.28869890542065,0
127.10717689988361,37.2886968054195,0
127.10717589989106,37.28869470542311,0
127.10717489988753,37.288692605417516,0
127.10717399989345,37.288690505416525,0
127.10717299988974,37.288688405419926,0
127.10717199988459,37.288686405418865,0
127.10717099988892,37.28868450542254,0
127.10717009988828,37.28868280542169,0
127.10716909989289,37.288680905416335,0
127.10716829989052,37.28867920541992,0
127.1071672998918,37.28867750541464,0
127.10716639989295,37.28867570541824,0
127.10716539988289,37.28867400542176,0
127.10716429989279,37.28867190542085,0
127.10716339989423,37.28867010541543,0
127.1071623998911,37.28866800541875,0
127.10716119989164,37.28866590542219,0
127.10716039988529,37.28866380541636,0
127.1071593998936,37.288661705419834,0
127.1071584998872,37.288659705423115,0
127.10715759989054,37.288657805422105,0
127.10715669989392,37.28865590542109,0
127.10715599989214,37.28865410541548,0
127.107154999886,37.28865220541883,0
127.10715409988954,37.28865030541781,0
127.1071532998912,37.2886484054212,0
127.10715229988699,37.28864640541999,0
127.10715139989225,37.28864440542339,0
127.10715029989166,37.28864230542219,0
127.10714929988761,37.288640305420934,0
127.10714809988728,37.2886383054198,0
127.10714699988685,37.28863620541857,0
127.10714589988656,37.288634105417316,0
127.10714479988629,37.288632005416055,0
127.10714359988616,37.28863000541489,0
127.10714249988577,37.28862790542261,0
127.10714129988575,37.28862590542143,0
127.10714009988766,37.288623805415675,0
127.10713899988748,37.288621705423374,0
127.10713789988593,37.288619705417595,0
127.10713669988777,37.28861760542082,0
127.10713569988444,37.28861560541948,0
127.1071344998864,37.28861350542269,0
127.107133499885,37.28861140541678,0
127.10713229988548,37.28860940541551,0
127.10713119988571,37.28860730542315,0
127.10713009988619,37.28860520542177,0
127.10712909988504,37.28860310541582,0
127.10712789988553,37.28860110542352,0
127.10712689988443,37.28859900541756,0
127.10712589988323,37.28859690542061,0
127.10712479989343,37.28859490542391,0
127.10712379989253,37.28859280541792,0
127.10712279988981,37.28859080541648,0
127.10712169989054,37.28858870542405,0
127.1071206998898,37.28858660541804,0
127.10711969988724,37.288584605416574,0
127.10711859988817,37.28858250542411,0
127.10711759988757,37.288580405418074,0
127.10711649988689,37.28857840542113,0
127.10711529988997,37.288576305424165,0
127.10711419989137,37.28857420542264,0
127.10711309989114,37.28857220541667,0
127.10711199989238,37.28857010542413,0
127.10711079989403,37.28856810542266,0
127.10710969989401,37.28856610541664,0
127.10710869989174,37.288564105424115,0
127.10710749989003,37.2885623054227,0
127.1071063998866,37.28856050541675,0
127.10710529988306,37.2885587054198,0
127.10710369989017,37.28855620542246,0
127.10710269988489,37.28855440542095,0
127.10710149988344,37.28855260541949,0
127.10710039989141,37.28855080542267,0
127.1070984998912,37.28854780541573,0
127.10709739989153,37.28854580541862,0
127.10709619989395,37.288543805417014,0
127.10709489988862,37.28854170542421,0
127.10709369989308,37.28853960541802,0
127.1070924998844,37.28853760541619,0
127.10709119989059,37.28853550542351,0
127.10708999989336,37.28853350542187,0
127.10708889989237,37.288531605420225,0
127.10708789988944,37.28852970542307,0
127.10708699988305,37.288527905416935,0
127.10708569988374,37.288525505419386,0
127.10708449989205,37.28852320542203,0
127.10708349988597,37.28852150541592,0
127.10708259988884,37.288519805423505,0
127.10708169989395,37.28851800541752,0
127.10708069988776,37.288516305420394,0
127.10707969989288,37.28851460542345,0
127.1070787998849,37.28851290542181,0
127.10707759988279,37.28851120542467,0
127.10707639989224,37.288509505418695,0
127.10707509989226,37.288507805417034,0
127.10707379989219,37.288506105424375,0
127.10707249989237,37.28850440542268,0
127.10707099989295,37.28850290542107,0
127.10706879988446,37.28850080542309,0
127.10706719988363,37.28849950541701,0
127.10706559989389,37.28849820542009,0
127.10706269989248,37.28849650541764,0
127.10706069988636,37.28849530542482,0
127.10705859989027,37.2884943054187,0
127.10705609989078,37.28849330542132,0
127.10705369988575,37.28849250541949,0
127.10705119989395,37.28849170542229,0
127.10704869988723,37.288491105424924,0
127.10704619988834,37.28849070541878,0
127.1070438998853,37.288490305421654,0
127.10704159989176,37.28849000542019,0
127.10703829988451,37.288489705417845,0
127.10703519989184,37.28848960542494,0
127.10703179989227,37.2884896054227,0
127.10702799988945,37.28848960542002,0
127.1070252998853,37.28848970541808,0
127.10702249989227,37.28848990542527,0
127.10701969988445,37.288490305423295,0
127.10701679988802,37.28849080542142,0
127.10701389988951,37.28849140542403,0
127.10701119988336,37.288492205417754,0
127.10700859988819,37.28849290542061,0
127.107006099891,37.28849360541897,0
127.10700219989138,37.288494705425244,0
127.10699989989011,37.28849540542357,0
127.1069973998928,37.28849610542174,0
127.10699499989337,37.28849680542443,0
127.10699199988713,37.288497905417614,0
127.10698959988758,37.28849860542019,0
127.10698709988621,37.28849950541821,0
127.1069843998847,37.288500605425114,0
127.1069806998898,37.288502405417965,0
127.10697839988569,37.288503805420845,0
127.10697629988319,37.28850550541966,0
127.10697449988389,37.28850730541889,0
127.10697309988397,37.28850930541871,0
127.1069715998841,37.288511405418475,0
127.10697019988403,37.28851340541825,0
127.10696879989312,37.28851550542274,0
127.10696749988897,37.288517605422605,0
127.10696639989216,37.28851970542283,0
127.1069654998913,37.28852180542322,0
127.10696459989046,37.2885239054236,0
127.10696369989155,37.28852590541944,0
127.10696299988851,37.288527905424466,0
127.10696239988751,37.288529705424985,0
127.10696199989383,37.28853150542588,0
127.10696169988707,37.288533305422185,0
127.10696109988362,37.288535805418654,0
127.10696059988932,37.28853830541993,0
127.10696029989299,37.288540705425824,0
127.10695999988562,37.28854310542254,0
127.1069596998869,37.2885462054244,0
127.10695969988481,37.28854860542611,0
127.10695989989229,37.288550905423634,0
127.1069602998841,37.28855380542159,0
127.10696079988433,37.28855560541902,0
127.10696159988402,37.28855770542607,0
127.10696229989178,37.28855950542387,0
127.10696309989181,37.28856160542189,0
127.10696409988986,37.28856360542456,0
127.10696489988649,37.288565305422225,0
127.10696579989246,37.28856700542466,0
127.10696659988919,37.288568705422314,0
127.10696739988592,37.288570405419975,0
127.1069685998917,37.288572405422975,0
127.10696969988831,37.288574405421194,0
127.10697079988677,37.28857630542386,0
127.10697189989264,37.288578405426776,0
127.10697269988962,37.2885801054244,0
127.1069734998866,37.28858180542201,0
127.10697439989295,37.28858350542439,0
127.10697579988391,37.28858610541873,0
127.10697649989204,37.28858790542548,0
127.10697739988744,37.288589605418636,0
127.10697839988416,37.288591705425745,0
127.10697939989248,37.28859380542402,0
127.10698049988757,37.28859590542669,0
127.10698119989219,37.28859790542447,0
127.10698189988734,37.28860040541795,0
127.1069824998917,37.28860250542469,0
127.1069830998833,37.28860470541779,0
127.10698359989158,37.28860670542441,0
127.10698419989244,37.28860900542221,0
127.10698459988403,37.28861080542381,0
127.10698489988683,37.288612705425535,0
127.10698539989357,37.28861480541868,0
127.10698559989245,37.288617005420434,0
127.1069858998896,37.28861920541779,0
127.10698619988653,37.28862140542414,0
127.10698639989249,37.28862440542658,0
127.10698639989141,37.28862680541926,0
127.10698639989396,37.28862900542087,0
127.10698599988302,37.28863110542626,0
127.10698569988756,37.28863290542279,0
127.10698539988823,37.28863490541937,0
127.10698459989324,37.288638305421,0
127.10698409988801,37.28864020542173,0
127.1069834998921,37.2886423054181,0
127.10698279988834,37.28864430542319,0
127.10698189989019,37.288646205423554,0
127.10698099989199,37.28864810542391,0
127.10697969988392,37.28865030541937,0
127.10697859988365,37.28865190542373,0
127.10697729988327,37.28865370541898,0
127.10697609989398,37.28865540542346,0
127.10697479988795,37.28865690542289,0
127.10697329989277,37.28865860542239,0
127.10697169988603,37.28866040542162,0
127.10696999988485,37.28866200542516,0
127.10696789988306,37.288664005419434,0
127.10696609989277,37.28866570542305,0
127.1069642998838,37.28866720542618,0
127.10696279988292,37.28866860542072,0
127.10696069988444,37.288670405423794,0
127.10695899988677,37.288671805427086,0
127.1069569998831,37.288673205425354,0
127.1069548998925,37.28867460541915,0
127.10695299988872,37.28867590542642,0
127.10695129989095,37.288677305420585,0
127.10694909988845,37.28867880542303,0
127.10694729988676,37.28867990542574,0
127.10694499988992,37.2886812054234,0
127.10694209989227,37.288682505420134,0
127.10694009988661,37.288683405422226,0
127.10693799988468,37.288684205424126,0
127.10693509989262,37.288685205425075,0
127.10693239988983,37.288686005425944,0
127.10692989988958,37.28868650542239,0
127.10692689989392,37.288687205422704,0
127.10692429989122,37.28868790542349,0
127.10692099988732,37.28868870542311,0
127.10691869988351,37.28868920541958,0
127.10691629989252,37.28868970542056,0
127.10691399989048,37.288690105421416,0
127.10691169989038,37.28869040542669,0
127.10690879988749,37.2886908054264,0
127.10690599988897,37.288690905426066,0
127.10690349988536,37.28869100542163,0
127.10690089988532,37.28869100542594,0
127.10689669988336,37.2886908054271,0
127.10689439988947,37.28869080542742,0
127.10689199988815,37.28869070542732,0
127.10688969988708,37.28869050542731,0
127.10688739989324,37.28869050542751,0
127.10688409988929,37.28869020542083,0
127.1068808998855,37.288689805423196,0
127.10687779989334,37.2886893054258,0
127.10687469988797,37.288688905423676,0
127.10687169988299,37.28868840542162,0
127.10686859989293,37.28868780542845,0
127.10686429988326,37.288687005423206,0
127.10686189989048,37.288686505422355,0
127.10685939988814,37.2886860054256,0
127.10685709988452,37.288685405424644,0
127.10685479988804,37.28868500542388,0
127.10685179988332,37.28868450542133,0
127.10684949988688,37.28868410542047,0
127.10684709989206,37.28868370542387,0
127.10684469988404,37.28868340542258,0
127.10684239989243,37.28868330542637,0
127.10683999988439,37.28868300542497,0
127.10683719989248,37.288682805427435,0
127.10683419988645,37.288682905424814,0
127.10683189988364,37.28868280542822,0
127.10682949988491,37.28868260542233,0
127.10682719989336,37.28868250542583,0
127.10682419989165,37.2886824054229,0
127.10682179989072,37.28868230542139,0
127.10681929988712,37.288682405424176,0
127.10681679988356,37.288682505426905,0
127.10681389988693,37.28868260542868,0
127.1068111998848,37.28868280542637,0
127.1068086998881,37.28868310542919,0
127.10680579989194,37.2886837054266,0
127.10680189988413,37.28868460542582,0
127.10679949989034,37.288685205428955,0
127.10679699988704,37.2886858054271,0
127.10679459988881,37.2886866054302,0
127.10679249988327,37.288687505425,0
127.10679039988662,37.288688505424474,0
127.10678789988815,37.288689905423055,0
127.10678569988652,37.28869120542229,0
127.10678249988669,37.28869320542367,0
127.10677999988792,37.288694605422066,0
127.10677779988369,37.28869600542569,0
127.10677499988782,37.288698005428074,0
127.10677289988624,37.28869920542729,0
127.10677079988695,37.28870080542677,0
127.10676899988907,37.28870210542692,0
127.10676719989114,37.28870340542702,0
127.10676559988757,37.288704805423166,0
127.10676359989294,37.28870660542753,0
127.10676179988586,37.28870830542768,0
127.10676009988605,37.28871010542828,0
127.10675879988374,37.28871170542989,0
127.10675739988555,37.28871320542218,0
127.10675579988813,37.288714805427425,0
127.10675399989213,37.288717005423464,0
127.10675269988504,37.28871880542505,0
127.10675139988706,37.28872070542234,0
127.10675009988663,37.28872270542414,0
127.10674879988615,37.28872470542593,0
127.10674749988556,37.2887267054277,0
127.10674659989179,37.28872860542624,0
127.10674559989293,37.28873080542458,0
127.10674459988938,37.288733205422965,0
127.10674409989306,37.2887354054274,0
127.10674359989022,37.288737405422594,0
127.10674309989172,37.28873970542256,0
127.10674289988586,37.28874210542341,0
127.10674269989126,37.28874450542443,0
127.1067423998937,37.28874710542974,0
127.1067423998846,37.28874900542634,0
127.1067423998844,37.28875100542764,0
127.10674239988643,37.28875340542925,0
127.10674249988689,37.28875580542663,0
127.106742699888,37.28875810542429,0
127.10674269988327,37.28876030542566,0
127.106742999894,37.28876210542344,0
127.10674339988941,37.28876400543039,0
127.106743699889,37.288766305423806,0
127.1067441998896,37.28876840542676,0
127.10674479989325,37.28877030542545,0
127.10674549988387,37.28877220542874,0
127.10674599988936,37.28877410542263,0
127.10674669989127,37.28877600542609,0
127.10674739988882,37.28877810542962,0
127.10674819989165,37.28877990542432,0
127.10674919988888,37.28878230542895,0
127.1067503998921,37.28878530542568,0
127.10675149989244,37.288787505426015,0
127.106752199888,37.28878970542504,0
127.10675379989183,37.288792905423094,0
127.10675469988418,37.28879460542685,0
127.10675559988334,37.28879650543083,0
127.10675639988425,37.288798405430015,0
127.10675739989115,37.28880040542546,0
127.1067585998925,37.28880250542599,0
127.10675979989395,37.288804605426506,0
127.10676109989397,37.288806705422786,0
127.1067624998832,37.28880870542813,0
127.10676379988551,37.28881070542886,0
127.1067654998928,37.28881270543084,0
127.106767299883,37.28881440542362,0
127.10676909988439,37.288816105425546,0
127.10677119989003,37.28881740542365,0
127.10677329988877,37.28881850543048,0
127.10677529989158,37.28881950542799,0
127.10677799989254,37.28882060542749,0
127.10678029988613,37.28882130542542,0
127.1067829998937,37.28882210542923,0
127.10678569988555,37.28882260542803,0
127.10678899988844,37.28882320542418,0
127.10679149988792,37.28882350542228,0
127.10679409988782,37.28882370542956,0
127.10679669989031,37.288823805423235,0
127.106799199885,37.2888238054254,0
127.10680239988656,37.288823505429306,0
127.1068051998834,37.288823205422986,0
127.10680779988304,37.288822905425135,0
127.10681079989203,37.28882240542828,0
127.1068130998873,37.28882200542938,0
127.10681559989295,37.28882150542654,0
127.10681829988414,37.28882100542392,0
127.10682109988718,37.28882040542163,0
127.10682399988626,37.28881990542852,0
127.10682689988548,37.28881940542635,0
127.10682979988664,37.28881880542857,0
127.10683249988898,37.288818305425806,0
127.10683499989213,37.2888179054271,0
127.10683719988882,37.288817505423005,0
127.10684109988762,37.288816805422705,0
127.10684379989183,37.288816205424155,0
127.10684679989136,37.28881560542164,0
127.1068490998905,37.288815005421974,0
127.10685149988791,37.28881440542697,0
127.10685399988378,37.28881380542759,0
127.10685649989095,37.28881320542837,0
127.10685899988897,37.28881250542434,0
127.1068613998885,37.2888118054246,0
127.10686369988963,37.288811105420095,0
127.10686679988422,37.28881010542146,0
127.10686949988997,37.28880940542678,0
127.10687229988716,37.28880850542748,0
127.10687489988537,37.28880770542326,0
127.1068772998846,37.28880700542317,0
127.1068803998882,37.28880610541989,0
127.10688269989069,37.288805305428475,0
127.10688529988683,37.288804605419564,0
127.10688799988316,37.28880380541974,0
127.10689079989113,37.28880290542016,0
127.1068934998873,37.28880210542021,0
127.1068960998849,37.28880130542453,0
127.10689869989183,37.288800605424505,0
127.1069010998906,37.288799905423915,0
127.10690339989081,37.28879920542764,0
127.10690559989071,37.28879860542218,0
127.10690779989046,37.28879800542569,0
127.1069099998903,37.288797405420155,0
127.10691319989334,37.28879640542509,0
127.10691609988591,37.2887956054249,0
127.10691879989287,37.28879480542453,0
127.10692129988976,37.28879410541917,0
127.10692439988298,37.28879310541898,0
127.10692729988632,37.28879230542769,0
127.10692949988781,37.28879160542625,0
127.10693199988455,37.288790905420655,0
127.10693609988797,37.28878970542174,0
127.10693879988322,37.28878890542072,0
127.10694159988613,37.28878820541997,0
127.10694429989258,37.288787405419,0
127.10694689988921,37.288786605422175,0
127.10694929988499,37.28878600542514,0
127.1069519998913,37.28878520542399,0
127.1069545998859,37.28878450542252,0
127.10695699989286,37.28878390542549,0
127.10695929989231,37.28878320541909,0
127.10696209988329,37.28878250542668,0
127.10696449989224,37.28878180542496,0
127.10696749989346,37.28878100541925,0
127.10696979989045,37.288780405426174,0
127.10697229988648,37.28877970541971,0
127.10697499989024,37.28877900542257,0
127.10697769989395,37.28877830542536,0
127.1069802998881,37.288777605423306,0
127.10698289989348,37.288776905421386,0
127.10698539988904,37.288776205423645,0
127.10698769988782,37.28877550542567,0
127.10699009988319,37.28877490541878,0
127.1069932998935,37.28877400542622,0
127.10699619988652,37.28877310541947,0
127.10699889989166,37.28877230542622,0
127.10700189989399,37.28877140542409,0
127.10700399988443,37.28877070542548,0
127.10700629989236,37.288770105422856,0
127.10700869988926,37.28876940542004,0
127.10701109988788,37.28876860542163,0
127.10701359988494,37.28876780541873,0
127.10701619989327,37.288766905424986,0
127.10701889988695,37.28876610542209,0
127.10702149988415,37.28876520541903,0
127.10702419988877,37.2887644054252,0
127.10702689988423,37.28876350541758,0
127.10702939989201,37.288762705423515,0
127.10703199988697,37.28876190542477,0
127.10703439988539,37.28876110541688,0
127.10703679988352,37.288760305417924,0
127.10703909989064,37.288759705423644,0
127.10704129989196,37.28875890542454,0
127.10704349989146,37.28875820542091,0
127.10704649988325,37.28875720542191,0
127.10704969988664,37.28875600542298,0
127.10705179988757,37.28875530542366,0
127.10705399988686,37.28875460541983,0
127.10705689989118,37.288753605425214,0
127.1070590998924,37.28875280541674,0
127.10706129989133,37.288752105421786,0
127.1070634998922,37.28875130542224,0
127.10706559989288,37.28875060542269,0
127.10706799988864,37.288749905418626,0
127.10707019988936,37.28874910541895,0
127.10707239988814,37.28874840542379,0
127.1070745998888,37.288747605424035,0
127.10707679988576,37.288747005424305,0
127.10707889988618,37.2887463054245,0
127.10708109988501,37.28874560542017,0
127.10708369989014,37.28874480542043,0
127.10708619988571,37.28874400541596,0
127.10708829988597,37.28874330541598,0
127.10709089989258,37.28874240542053,0
127.1070930998929,37.288741605420405,0
127.10709529989147,37.28874090541579,0
127.10709739989157,37.288740205415664,0
127.1070996998899,37.28873940541992,0
127.10710209988481,37.28873870542415,0
127.10710419988665,37.28873790541934,0
127.10710639988481,37.288737205423516,0
127.1071090998895,37.28873630542314,0
127.10711149988445,37.28873560541818,0
127.1071135998842,37.28873490541774,0
127.10711599989015,37.28873420542187,0
127.10711959988316,37.28873310541641,0
127.10712209988901,37.28873230542034,0
127.10712469988366,37.288731405423945,0
127.10712749988635,37.288730505418606,0
127.10713019989056,37.28872960541774,0
127.1071326998868,37.288728705416716,0
127.10713559988913,37.28872770542009,0
127.10713809988337,37.288726905423495,0
127.10714109988402,37.288725905422176,0
127.10714359988967,37.28872510541663,0
127.10714619989348,37.28872430541548,0
127.10714839989089,37.288723605418845,0
127.1071505998882,37.28872290542219,0
127.1071529998858,37.28872200541627,0
127.1071552998831,37.28872120541941,0
127.10715949989238,37.288719805417074,0
127.10716199988612,37.28871900541994,0
127.10716469988957,37.28871810541827,0
127.10716749989109,37.288717205420966,0
127.1071702998831,37.288716205418844,0
127.10717319988456,37.28871520542127,0
127.10717599988612,37.28871430541475,0
127.10717869988892,37.28871340542174,0
127.10718149989037,37.28871250541508,0
127.10718419989313,37.288711605421945,0
127.1071867998866,37.28871070541514,0
127.10718939989103,37.28870980541747,0
127.10719199989381,37.288709005415285,0
127.10719459988684,37.28870810541732,0
127.10719709989117,37.288707305419614,0
127.10720079989281,37.28870610542066,0
127.10720339988563,37.28870520542248,0
127.10720589989,37.28870440541559,0
127.10720969988805,37.28870330541629,0
127.10721229989043,37.28870250541364,0
127.10721489988305,37.288701605415206,0
127.1072175998835,37.28870080541682,0
127.10722019988567,37.28870000541401,0
127.10722289988756,37.28869910541996,0
127.10722569988627,37.28869830541678,0
127.10722829988836,37.28869750541377,0
127.10723109988666,37.288696705419454,0
127.10723379988681,37.288695905420695,0
127.10723639988869,37.28869510541751,0
127.10723909988873,37.28869430541862,0
127.10724169989204,37.288693405419764,0
127.10724429988394,37.288692505420684,0
127.10724699988552,37.288691605417064,0
127.10724949989044,37.28869070541366,0
127.10725339988853,37.288689405417195,0
127.10725599989152,37.288688505418,0
127.10725859989294,37.28868770541431,0
127.1072624998924,37.28868630541297,0
127.10726499988549,37.288685405418065,0
127.10726759988985,37.28868440541407,0
127.1072699998847,37.2886835054147,0
127.10727269988709,37.288682505414926,0
127.10727489989345,37.28868180541606,0
127.1072769998918,37.28868100541708,0
127.10727929988654,37.28868020541775,0
127.10728229988364,37.28867920541274,0
127.10728439989143,37.288678505418375,0
127.10728679988588,37.288677605418656,0
127.1072895998846,37.28867670541836,0
127.1072938998872,37.288675305415424,0
127.10729669988572,37.28867440541496,0
127.10729929988764,37.28867350541481,0
127.10730179989126,37.28867260541928,0
127.10730509989139,37.28867100541731,0
127.10730699988737,37.28866980541778,0
127.10730929988397,37.28866810541269,0
127.10731109989217,37.28866620541291,0
127.10731249988477,37.28866430541353,0
127.10731359989374,37.2886624054194,0
127.10731449989373,37.28866060541202,0
127.10731499988924,37.28865880541425,0
127.10731549988934,37.2886567054118,0
127.10731559989264,37.288654105414224,0
127.10731529989401,37.288652105417746,0
127.10731469988824,37.28865020541272,0
127.10731359988601,37.2886479054128,0
127.10731209988636,37.288645905418306,0
127.10731009988613,37.288643805415525,0
127.10730869988882,37.288642305412225,0
127.10730739989103,37.288640705417684,0
127.10730639989106,37.28863890541794,0
127.10730489988977,37.28863630541386,0
127.10730409988632,37.288634505413725,0
127.10730299989285,37.288632405414006,0
127.10730219988788,37.28863070541841,0
127.10730119988673,37.28862900541418,0
127.10730029988676,37.28862710541416,0
127.10729949988489,37.28862520541844,0
127.10729839989031,37.288623205414225,0
127.10729699989284,37.28862100541477,0
127.10729609988319,37.28861900541899,0
127.10729509988845,37.2886169054145,0
127.10729389988899,37.28861460541909,0
127.10729259988327,37.28861210541907,0
127.10729119988783,37.288609805415,0
127.10728979988403,37.28860730541964,0
127.10728839988874,37.28860500541553,0
127.10728709989156,37.288602705415734,0
127.10728579988326,37.28860040541575,0
127.10728459989106,37.28859840541608,0
127.10728359988539,37.28859630542034,0
127.10728239989187,37.288594405416205,0
127.10728129988665,37.28859240542068,0
127.107280299891,37.288590405420635,0
127.1072792998841,37.288588405420406,0
127.10727819988887,37.288586505420575,0
127.10727709988404,37.28858450541599,0
127.10727609988861,37.28858250541592,0
127.1072750998932,37.28858050541584,0
127.10727409988799,37.28857840542002,0
127.10727299988342,37.288576405415405,0
127.10727189989159,37.288574305415416,0
127.10727089988515,37.288572305415116,0
127.10726969989378,37.28857030541532,0
127.10726849989116,37.28856830541533,0
127.10726749988635,37.28856620541947,0
127.10726629988555,37.28856410541491,0
127.10726509988314,37.28856210541489,0
127.10726339988332,37.288559105419274,0
127.10726229989052,37.28855710541474,0
127.10726089989173,37.288554405418964,0
127.10725969988819,37.28855250541446,0
127.10725879988841,37.28855070541871,0
127.10725789988722,37.28854900541848,0
127.10725679989162,37.28854720541403,0
127.10725569988766,37.28854520541826,0
127.10725489988799,37.28854330541327,0
127.10725379989391,37.288541405413234,0
127.10725269989017,37.28853940541745,0
127.10725179989242,37.28853750541709,0
127.10725079989336,37.28853580542149,0
127.1072496998883,37.288533905421225,0
127.10724869988955,37.28853220541661,0
127.10724729988704,37.28852980541633,0
127.10724629988817,37.288528105420674,0
127.10724519989309,37.28852630541611,0
127.10724409988659,37.28852450542037,0
127.10724289988387,37.288522605415686,0
127.10724159988604,37.288519805419504,0
127.10724059989084,37.288517905414714,0
127.10723949988456,37.28851610541893,0
127.10723809989241,37.28851380541428,0
127.10723699989111,37.28851170541381,0
127.10723579989033,37.288509705413524,0
127.10723479989366,37.28850790541325,0
127.10723369988595,37.28850620542197,0

            </coordinates>
        </LineString>
    </Placemark>
</Document>
</kml>
