<?xml version="1.0" encoding="UTF-8"?>
<kml xmlns="http://www.opengis.net/kml/2.2">
<Document>
    <name>Waypoints</name>
    <Style id="yellowLineGreenPoly">
        <LineStyle>
            <color>7f00ffff</color>
            <width>4</width>
        </LineStyle>
        <PolyStyle>
            <color>7f00ff00</color>
        </PolyStyle>
    </Style>
    <Placemark>
        <name>Path</name>
        <styleUrl>#yellowLineGreenPoly</styleUrl>
        <LineString>
            <coordinates>
127.10718629988905,37.28916920541892,0
127.1071867998869,37.28917100541531,0
127.10718709989118,37.28917320542118,0
127.10718699988543,37.289175605418215,0
127.10718639989283,37.289178205420356,0
127.10718569989008,37.28918080541789,0
127.10718499988893,37.28918330541988,0
127.10718469989305,37.28918590541732,0
127.10718459988716,37.28918830541434,0
127.10718439989353,37.289190705416125,0
127.10718429989083,37.28919290542209,0
127.10718429988736,37.28919510541445,0
127.107184199883,37.28919740541595,0
127.10718389989368,37.28919960542222,0
127.10718379989298,37.28920170541462,0
127.10718359989136,37.28920390541614,0
127.10718339988973,37.28920610541766,0
127.10718329988718,37.2892083054146,0
127.10718309988556,37.28921050541611,0
127.10718349988892,37.2892127054174,0
127.10718409989369,37.28921470541849,0
127.1071850998848,37.28921660541457,0
127.10718619988957,37.289218305415204,0
127.10718719988405,37.28922000542021,0
127.10718829989074,37.289221605416266,0
127.1071894998895,37.289223605416915,0
127.1071884998834,37.289221905420746,0
127.10718769988983,37.28922400541814,0
127.10718659989129,37.28922590541999,0
127.10718759988872,37.28922810542085,0
127.10718779988831,37.289230005417465,0
127.10718769989076,37.28923190541881,0
127.10718749989259,37.28923390542023,0

            </coordinates>
        </LineString>
    </Placemark>
</Document>
</kml>
