<?xml version="1.0" encoding="UTF-8"?>
<kml xmlns="http://www.opengis.net/kml/2.2">
<Document>
    <name>Waypoints</name>
    <Style id="yellowLineGreenPoly">
        <LineStyle>
            <color>7f00ffff</color>
            <width>4</width>
        </LineStyle>
        <PolyStyle>
            <color>7f00ff00</color>
        </PolyStyle>
    </Style>
    <Placemark>
        <name>Path</name>
        <styleUrl>#yellowLineGreenPoly</styleUrl>
        <LineString>
            <coordinates>
127.10723409989103,37.28850610541705,0
127.10723509988912,37.288507805421794,0
127.107236099886,37.28850960541306,0
127.10723719989188,37.2885114054179,0
127.10723829988677,37.28851320541352,0
127.10723939989275,37.28851500541831,0
127.10724059988564,37.28851680541829,0
127.10724169989346,37.28851850541852,0
127.10724319988712,37.28852060541839,0
127.10724429988547,37.288522205413855,0
127.10724539988361,37.28852380541833,0
127.1072467998842,37.28852560541814,0
127.10724799988874,37.28852740541822,0
127.10724909988414,37.288529205413745,0
127.10725039988667,37.28853100541816,0
127.10725159989141,37.28853280541821,0
127.10725299989083,37.2885347054135,0
127.10725479988402,37.28853650541263,0
127.10725649988547,37.28853790541616,0
127.10725829988344,37.28853940541959,0
127.10726019989409,37.2885407054184,0
127.10726209988535,37.28854180541673,0
127.10726399988627,37.28854300541974,0
127.10726589989065,37.288544005413634,0
127.10726819989024,37.28854480541575,0
127.10727059989121,37.28854540541303,0
127.10727279988761,37.28854580541934,0
127.10727549988755,37.28854610541588,0
127.10727829988993,37.288546105421034,0
127.10728069989212,37.28854590541754,0
127.10728339988484,37.288545205413016,0
127.10728609988864,37.28854450541762,0
127.10728829989246,37.28854370541382,0
127.10729089989134,37.28854270541815,0
127.10729399989194,37.288541705417174,0
127.10729629989214,37.28854100541309,0
127.10729869989163,37.28854020541771,0
127.10730099989321,37.288539405418,0
127.10730379988954,37.288538305417084,0
127.10730609989096,37.28853750541725,0
127.10730839989091,37.28853680541292,0
127.10731039988822,37.28853590541336,0
127.10731289988867,37.28853490541289,0
127.1073153998874,37.28853400541691,0
127.10731789988765,37.288533005416326,0
127.10732009989081,37.28853220541192,0
127.10731769989152,37.288533005416745,0
127.10731549988694,37.28853390541665,0
127.10731319988435,37.28853480541223,0
127.10731099989096,37.288535705412244,0
127.10730879988621,37.28853660541203,0
127.10730629988872,37.288537405412306,0
127.10730389988612,37.28853840541695,0
127.10730179988902,37.288539405416635,0
127.10729949988897,37.28854010542084,0
127.10729739988514,37.28854080541561,0
127.10729519989282,37.28854160541977,0
127.10729309988731,37.28854240541902,0
127.10729079988559,37.2885432054186,0
127.1072884998921,37.288544205418404,0
127.10728569988713,37.28854510541865,0
127.10728359988309,37.28854580541316,0
127.10728179988955,37.28854690541219,0
127.10727999988444,37.28854800542002,0
127.10727799988393,37.288549805415194,0
127.10727589989166,37.28855190541985,0
127.10727419989185,37.28855400541478,0
127.10727319988469,37.28855570541283,0
127.10727209988889,37.28855750542028,0
127.10727129988906,37.288559205418146,0
127.10727069989197,37.28856120542053,0
127.10727029989269,37.28856310541802,0
127.10727019988451,37.288565205419616,0
127.10727039989325,37.2885673054166,0
127.107270899885,37.288569405417405,0
127.10727169989373,37.288571505413564,0
127.10727239988486,37.288573405413935,0
127.10727349988433,37.28857500541818,0
127.10727469988883,37.28857690541356,0
127.1072756998856,37.28857880541809,0
127.10727659988753,37.28858050541818,0
127.10727729989178,37.28858230541415,0
127.10727799988317,37.28858420541449,0
127.107278699894,37.2885863054153,0
127.10727939988685,37.28858810542008,0
127.10728039988723,37.28858980541546,0
127.10728129988773,37.28859160542008,0
127.1072821998899,37.28859330542013,0
127.107283299889,37.288595705415865,0
127.10728429988623,37.28859760542034,0
127.10728529988377,37.2885995054158,0
127.10728619988447,37.28860130542037,0
127.10728729989304,37.28860310541576,0
127.10728809988453,37.28860490541582,0
127.10728899988705,37.28860660541583,0
127.1072898998879,37.28860840542038,0
127.10729089988568,37.2886103054158,0
127.10729179988664,37.288612105420334,0
127.10729259988962,37.28861390542055,0
127.10729339989419,37.28861560541619,0
127.10729419988597,37.28861740541621,0
127.1072950998857,37.28861930541629,0
127.10729589989042,37.288621005411926,0
127.1072966998905,37.28862300541221,0
127.10729759988727,37.28862510541236,0

            </coordinates>
        </LineString>
    </Placemark>
</Document>
</kml>
