<?xml version="1.0" encoding="UTF-8"?>
<kml xmlns="http://www.opengis.net/kml/2.2">
<Document>
    <name>Waypoints</name>
    <Style id="yellowLineGreenPoly">
        <LineStyle>
            <color>7f00ffff</color>
            <width>4</width>
        </LineStyle>
        <PolyStyle>
            <color>7f00ff00</color>
        </PolyStyle>
    </Style>
    <Placemark>
        <name>Path</name>
        <styleUrl>#yellowLineGreenPoly</styleUrl>
        <LineString>
            <coordinates>
127.10743269988335,37.28882490541821,0
127.10743539988884,37.28882390541484,0
127.10743749989354,37.28882280541743,0
127.10743949989002,37.28882160541105,0
127.10744129988937,37.28882040541423,0
127.1074428998931,37.28881910541342,0
127.10744479988767,37.28881730541124,0
127.10744649988968,37.28881600541459,0
127.1074484998936,37.288814205416735,0
127.10745009988582,37.28881290541565,0
127.10745189988768,37.288811505409534,0
127.1074538998887,37.28880990541169,0
127.10745599988677,37.28880840541353,0
127.10745829989288,37.2888069054149,0
127.10746219988893,37.28880510541568,0
127.10746479988501,37.288804005411684,0
127.10746739989207,37.28880290541682,0
127.10746999988652,37.28880190541725,0
127.10747249989272,37.28880100540919,0
127.10747499988601,37.28880020541445,0
127.10747749989063,37.28879940541083,0
127.10747999989388,37.288798705411715,0
127.10748249988697,37.28879790541681,0
127.10748509988981,37.2887971054172,0
127.10748759989428,37.28879630541337,0
127.10748999988778,37.28879560540969,0
127.10749239989362,37.28879480541059,0
127.10749469988843,37.28879410541167,0
127.10749689988492,37.28879340540853,0
127.10749909989246,37.288792705414544,0
127.10750139988605,37.28879210541105,0
127.10750349988386,37.288791405412645,0
127.10750559989299,37.28879070541438,0
127.10750869988864,37.2887898054124,0
127.10751169988461,37.28878900541077,0
127.10751459988444,37.28878800541379,0
127.10751779989089,37.28878700541134,0
127.10752009988391,37.288786405416474,0
127.10752249988936,37.288785605407746,0
127.10752499989175,37.28878490540765,0
127.10752759989353,37.288784105416084,0
127.10753019988553,37.2887832054107,0
127.1075329998842,37.288782405409265,0
127.1075356998843,37.28878160541263,0
127.10753849989284,37.28878090541579,0
127.10754129989135,37.28878010541415,0
127.10754399989023,37.28877940541287,0
127.107546699889,37.28877870541154,0
127.10754929988818,37.2887781054106,0
127.10755159989199,37.288777505415275,0
127.1075538998834,37.28877700541529,0
127.10755709988648,37.28877620541185,0
127.10755929989188,37.288775605412276,0
127.10756159988323,37.28877510541213,0
127.10756409988491,37.288774405411196,0
127.10756659988532,37.28877380541476,0
127.10756939988326,37.28877300541244,0
127.10757209989166,37.28877240541525,0
127.10757499988803,37.28877160540787,0
127.10757789989407,37.28877090541417,0
127.10758069988954,37.288770305411695,0
127.10758349988724,37.28876950540902,0
127.10758629988469,37.288768705415286,0
127.10758899989403,37.28876800541315,0
127.10759149989424,37.288767405407185,0
127.10759379988743,37.288766705406275,0
127.10759599989328,37.28876600541043,0
127.10759869989118,37.288765305407885,0
127.10760099988421,37.28876460540683,0
127.10760369989434,37.288763805408784,0
127.10760649989132,37.28876300541458,0
127.10760909989177,37.288762205412155,0
127.10761209988566,37.28876140540791,0
127.10761499989226,37.28876060540871,0
127.10761759989128,37.28875990541068,0
127.10761969988727,37.28875920541015,0

            </coordinates>
        </LineString>
    </Placemark>
</Document>
</kml>
